category,city,fax,phonenumber_three,province,description,url,phonenumber_four,website,subcategory_two,subcategory_three,subcategory_one,address_two,lead_source,phonenumber_five,phonenumber_two,company_name,address,keywords,email_address,phonenumber_one
pink wax dealer,,,,,all dental waxes we offer *hi-heat pink was 25 pcs/sheet 150pesos negotiable *local pink wax only 2.75 per pcs still neg. *us hi-heat pink was 1kilo/350pesos still negotiable *lokal bite wax 3.30 per.pcs neg ands more waxes we offer  tnx  reach me in my c.p. number#09498974923  V.P./OWNER;;;Oliver Castillo ,,,www.prostech.weebley.com,,,,,,,,PROSTECH DENTAL WAX,BAMBANG f.victorino ST. f victorinoCITY OF PASIG Metro Manila,,http://mailhide.recaptcha.net/d?k=01NLSjS7aEQYA6hW-ze4Bsnw==&c=fQ_0_jI4THIok8CtF-KZM1x0w_zLsiFU0cNgJuHYgkuyct0lbgq87MC1ond7YH_I http://www.prostech.weebley.com,02 579 9321
Information and Communications Technology,,,,,"Global Call International, Inc. is an affiliate of Micronetics International, Inc. Micronetics is a five-year-old company whose management has over one hundred collective years of professional experience in telecoms and computer systems. Global Call International was formed in response to the need for cost-effective and feature-rich call center solutions here in the Philippines. GCI has been tapped to be the exclusive distributor of Parsec Technologies call center software in the Philippines. ",,,www.globequest.com.ph,,,,,,,,GLOBAL CALL INTERNATIONAL INC.,Ground Floor Midland Bldg. 403 Buendia AvenueMakati City Metro Manila,,http://mailhide.recaptcha.net/d?k=01NLSjS7aEQYA6hW-ze4Bsnw==&c=sM2P-5NfDdk2P4OxnKc-CYVIFQWjOnn93N6IwicbiCY= http://www.globequest.com.ph,(632) 757-8378
Automatic Teller Machines,,,,,"This BPI Express Teller ATM is located at BANK OF THE PHILIPPINE ISLANDS Bldg.  150 E. Rodriguez Ave.  Bagong Bayan   , QUEZON C ITY, METRO MANILA. Access your cash easily with BPI's 1,700 Automated Teller Machines (ATM) strategically located nationwide. With the BPI Express Teller ATM facility available 24 hours a day, 7 days a week, you now have instant access to your cash for your various needs.  The BPI Express Teller ATM is more than just for withdrawals. It  also provides you with unparalleled banking services to match your active lifestyle, allowing you to do the following:  - Inquire your Account Balance anytime, anywhere - Transfer funds to and from another enrolled Express Teller Account - Pay your bills to over 170 partner merchants, utilities and establishments - Deposit cash to another Express teller account - Provide Special Services facility that includes: - Globe, Touch Mobile Prepaid reloading - Express Online and Express Mobile enrollments activation - PIN change  With our full service ATMs, you are on top of your finances. ",,,www.bpiexpressonline.com,,,,,,,,Bank of the Philippine Islands Express Teller ATM,BANK OF THE PHILIPPINE ISLANDS Bldg. 150 E. Rodriguez Ave. Bagong BayanQUEZON C ITY METRO MANILA,,http://www.bpiexpressonline.com,
Retailer,,,,,"AIRAJAMES PHARMACY & GENERAL MERCHANDISE is a Retailer business in Bacoor,Cavite ",,,,,,,,,,,AIRAJAMES PHARMACY & GENERAL MERCHANDISE,143 BUROL MOLINO IBacoor Cavite,,,0912-5003434   0912-5003434
Industrial Services and Equipment,,,,,"Crown Asia Compounders Corp. is a Industrial Services and Equipment located in  Km. 33, McArthur H'way, Bo. Tuktukan, Guiguinto, Bulacan ",,,,,,,,,,,Crown Asia Compounders Corp.,"Km. 33, McArthur H'way, Bo. Tuktukan, Guiguinto, Bulacan",,,(02) 412-0639
Advertising And Media,,,,,"LCJ Marketing & Management, Inc. is a  Advertising And Media business located in Kamias Road, Quezon City Metro Manila. For more information you can contact them at: +63 2 433 0220 ",,,,,,,,,,,"LCJ Marketing & Management, Inc.",Kamias RoadQuezon City Metro Manila,,,+63 2 433 0220
Eatery - Fastfood Center,,,,,"MR. SHOO-LEE'S is a Eatery - Fastfood Center business in MARIKINA,METRO MANILA ",,,,,,,,,,,MR. SHOO-LEE'S,A. BONIFACIO AVE. RIVERBANKS MALL.MARIKINA METRO MANILA,,,
,,,,,,,,,,,,,,,,,,,,
IMPORTER,,,,,"SHAOXING CHANGFENG NEW THERMAL INSULATION MTL LTD CO is a IMPORTER business in MANILA,METRO MANILA ",,,,,,,,,,,SHAOXING CHANGFENG NEW THERMAL INSULATION MTL LTD CO,"1160 TAYUMAN ST, BGY 234, ZONE 022 TONDO, MANILA",,,
Manufacturer,,,,,"Malonzo Skills Enterprises The manufacturer of Inventors Quality Products. Started from the Multiawarded Pressure Cooker to a Herbal Company. We also Manuafacture other Invention : Cremation Equipment, Thermal Coating Insulation, Garbage Cabinet, Cashew Oil, Kalamansi Oil and other invention. ",,,,,,,,,,,Malonzo Skills Enterprises,No. 16 Quirino Highway Pangarap Caloocan City 00 632 3836719CALOOCAN CITY Metro Manila,,,00 632 3836719
Contractor,,,,,"R. L. REJUSO CONSTRUCTION is a single proprietorship company engaged in General Building of Construction  or parts, Specialized expertise in the field of Exterior Wall Insulation & Finish System (EIFS). We primarily work with residential projects but are able to tackle Commercial jobs as well. ",,,https://www.facebook.com/r-l-rejuso-construction-652492691546124/?ref=hl,,,,,,,,R. L. REJUSO Construction,"Blk 33, Lot 15 Mojacar St.,tierra Nova Royale Iii Barangay 171Caloocan METRO MANILA",,http://mailhide.recaptcha.net/d?k=01NLSjS7aEQYA6hW-ze4Bsnw==&c=jJznBEmQX8TZgsHzL0ZHRjGIuVcFDNM4dLDtcY_XWwk= http://https://www.facebook.com/r-l-rejuso-construction-652492691546124/?ref=hl,(02) 938 2437
,,,,,"wiring harness, PVC electical insulation tapes, battery cable, ignition cord sets ",,,,,,,,,,,"YAZAKI-TORRES MANUFACTURING, INC.","Brgy. Makiling, Calamba LagunaManila Metro Manila",,http://mailhide.recaptcha.net/d?k=01NLSjS7aEQYA6hW-ze4Bsnw==&c=1mgxEBGEF95mxeipebjGjwnHPEjLLzSN_QD8j_rRhOw=,(049) 502-1530
Insulation Manufacturer,,,,,"Perlite Products -Lightweight Concrete -Lightweight Hollowblocks -Thermal Pipe/Board Insulation -Patching Compound -Cryogenic Insulation -Soil Conditioner -Filter Aid -Paint Filler Insulation Matl. -Fiberglass,Rockwool,Ceramic Fiber,Polyurethane,Rubber, PE Foam & Reflective Bubbles Other Product -Cement Board -Metal Framing -Stainless -Aluminum Sheet -Blind Rivets Service -Installation -Cldding Jobs ",,,,,,,,,,,"INSULFLEX INDUSTRIES, INC.",# 9 Gregorio Del Pilar St. PaltokQUEZON CITY NCR,,http://mailhide.recaptcha.net/d?k=01NLSjS7aEQYA6hW-ze4Bsnw==&c=eF6CpwvrHOREi3yfM03t4IHBTmVYAif3NqdSytxijII=,(02)372-1585
manufacturer,,,,,"CELLPAK PACKAGING INDUSTRIES is a established company, manufacturer of bubble plastic wrap and bubble foil insulation with the capabilities to design and customize a wide range of bubble bag, sheet type or according to customerâ€™s requirements for the packaging needs of various industries throughout Philippines, It was conceptualized to meet the packaging demand for packaging materials The Company is owned by Mr. Neil Sison who are expert in bubble plastic business. Our Plant located at No. 33 South Coast Drive, South Coast Industrial Complex, Carmona Cavite and Manila Plant at No. 4 Trinidad Street, Victoria Village, Canumay East, Valenzuela City.  Cellpak Packaging Industries meets growing demands of the fast-paced Semi-conductor requirements, high technology electronics, Semi-conductors as well as food industries and handicraft industries. Technically, the company is equipped with skilled and highly trained operators who have been in the business for more than 12 years.  With its advanced manufacturing and testing facilities â€“Cellpak Packaging Industries, produces good quality of bubble plastic to suit the specific needs of customers, The capacity of production still exceeds the demands of our customer because of the sophisticated and advanced machines we are using. That is also the reason why one of our main goal is to maximize the capacity of our production. Having the privilege to serve our existing clients which majority of them is into export business, it has brought about the sense in our service to always deliver on time. Even the proximity of the delivery has not been a problem to us since we are already used to deliver to distant places such as BATAAN , SUVIC, CLARK , TARLAC from the north all the way to sought provinces such as CAVITE , LAGUNA, LUCENA, BICOL, SAN PABLO , BATANGAS and among others. It shall always be ready to provide the BEST Bubble plastic products which are needed in the market. Quality of service and determination shall be valued in order to satisfy the needs of its client. Our quality policy is we are committed to provide our customers with quality bubble plastic products and services through good manufacturing practices and continual improvements in our process and quality system  ",,,,,,,,,,,cellpak Packaging Industries,No. 4 Canumay EastCITY OF VALENZUELA Metro Manila,,http://mailhide.recaptcha.net/d?k=01NLSjS7aEQYA6hW-ze4Bsnw==&c=0DAweP60pAdnQxlcF89v711scG7a2dyKizktbqqHKbc=,02-340-17-30
MANUFACTURER,,,,,"CELLPAK PACKAGING INDUSTRIES is a renowned full service manufacturer with capabilities to design and customize a wide range of  packaging   materials for the needs of various industries  throughout the Philippine archipelago.        OUR PRODUCTS  PLASTIC BUBBLE SHEET (40â€  x  100MTS- small bubble 2ply clear) (40â€  x  50mts-big bubble 2ply clear) In roll, sheet type, box type, bag type, envelope type	and our latest  perforated type.  Also available: 	anti static bubble roll-clear and colored  3ply sheet-clear and colored  PE/PP/HD PLASTIC (as per requirement) In bag type form, tube type Gusseted type or box type Trash bags (clear and black) Plastic streamers/banners  STRETCH FILM  BUBBLE FOIL (INSULATION) ALUMINIZED/PURE FOIL  PE FOAM BARE ( in any variation of sizes)  PE FOAM INSULATION  ",,,www.cellpakindus.com,,,,,,,,CELLPAK PACKAGING INDUSTRIES,CANUMAY EAST CANUMAY EASTVALENZUELA Metro Manila,,http://mailhide.recaptcha.net/d?k=01NLSjS7aEQYA6hW-ze4Bsnw==&c=Ef8EOK1IHoV4FWn4ONdFffzIvlKXYgUontq97zRiUn4= http://www.cellpakindus.com,+6323792886
Contractor,,,,,"Our company is a service oriented ROOFING/CEILING SPECIALIST that focuses mainly in the supply and installation of quality, durable and affordable roofing materials.  We offer products from particularly the following brands: - GYK Asphalt Shingles - Nuoran Roofing System Stone Coated Metal Roof Tiles - SCG Concrete Roof Tiles - Butterfly, Shinto and Mazarron Ceramics Clay Roof Tiles - Quick&Click PVC Panels for Ceiling and Wall Finishes  We also offer Complete Roofing System that includes DESIGN, SUPPLY and INSTALLATION of STEEL TRUSS or ROOF FRAMING using G.I. steel sections specifically engineered for roof framing function that is proven for its durability and strength with a 10 year guarantee.  Other trades and services we can provide to complete your requirements: Roof Insulation Q&C PVC Panels and Wall Cladding Gypsum / Acoustic / Metal Ceiling Boards Light Metal Frames for Ceiling/ Wall Phenolic Boards Aluminum Composite Panel Fascia and Cladding  ",,,,,,,,,,,Roofscape Enterprise,1135 Edsa Apolonio SamsonQuezon City METRO MANILA,,http://mailhide.recaptcha.net/d?k=01NLSjS7aEQYA6hW-ze4Bsnw==&c=E3qhLqalyE8aYc7SW8GMJnuHrp8MXTDXxPzVK_sBPyY=,024158367
MANUFACTURER,,,,,A MANUFACTURING COMPANY THAT PRODUCES BUBBLE INSULATION AND PE FOAM.  WE CATER OUR PRODUCTS TO CONSTRUCTION INDUSTRY. YOU CAN BE ASSURED OF LOWER PRICE BUT THE SAME QUALITY IN THE MARKET.WE ALWAYS HAVE STOCK FOR DELIVERY. FRIENDLY STAFF. OUR SITE IS ACCESSIBLE FOR THOSE WHO WANT TO PICK UP. ,,,,,,,,,,,PLUVIAL ENTERPRISES,Interior M. Gregorio Street Bagong Filipino Compound Canumay WestCITY OF VALENZUELA NCR,,,02-5440391
Bubble insulation,,,,,"Starfoil is local manufacturing company of BUBBLE INSULATION AND PE FOAM INSULATION used for roof insulation. it is light weight, water resistant, CFC free, Recyclable, Reusable, Radiant Barrier, Heat Insulation, sound Proof, easy to install, High Reflectivity and Improve energy cost saving Insulation ",,,,,,,,,,,starfoil,No. 4 Trinidad Street  Victoria VillageCITY OF VALENZUELA NCR,,http://mailhide.recaptcha.net/d?k=01NLSjS7aEQYA6hW-ze4Bsnw==&c=RqacwGCMfuE3uMT65Hg57w0rlWXSgXZWKn51qoeC7qw=,02 806 7881
"Salon, Spa, wellness center, grooming services",,,,,"The newest salon and spa in Marikina City! Complete Salon services with top caliber stylists to pamper you. The salon specializes in haircutting, coloring and rebonding using only the best salon exclusive treatments and solutions.Come and experience the difference of a great haircut! Experience body treatments with the introduction of special scrubs and body massages as well as feet pampering with our famous foot care...call or text 3343276 ",,,zuisalonspa.blogspot.com,,,,,,,,ZUI Salon and Spa,167B  A. Bonifacio Bgy. TaniongMarikina City Metro Manila,,http://mailhide.recaptcha.net/d?k=01NLSjS7aEQYA6hW-ze4Bsnw==&c=RJTVDFqwrHDexYF8UxTNCnnIl8gT3t-N5tbhIVgqsNk= http://zuisalonspa.blogspot.com,(632) 3343276
Eatery - Lutong Ulam,,,,,"MARKEN & JANUS LUTONG ULAM ATBP. is a Eatery - Lutong Ulam business in MARIKINA,METRO MANILA ",,,,,,,,,,,MARKEN & JANUS LUTONG ULAM ATBP.,A. BONIFACIO AVEMARIKINA METRO MANILA,,,
Eatery - Gotohan,,,,,"GOTO AVENUE is a Eatery - Gotohan business in MARIKINA,METRO MANILA ",,,,,,,,,,,GOTO AVENUE,A. BONIFACIO AVEMARIKINA METRO MANILA,,,948-3936
Automatic Teller Machines,,,,,"This BPI Express Teller ATM is located at Riverbank's Center  A. Bonifacio Avenue    , MARIKINA   , METRO MANILA. Access your cash easily with BPI's 1,700 Automated Teller Machines (ATM) strategically located nationwide. With the BPI Express Teller ATM facility available 24 hours a day, 7 days a week, you now have instant access to your cash for your various needs.  The BPI Express Teller ATM is more than just for withdrawals. It  also provides you with unparalleled banking services to match your active lifestyle, allowing you to do the following:  - Inquire your Account Balance anytime, anywhere - Transfer funds to and from another enrolled Express Teller Account - Pay your bills to over 170 partner merchants, utilities and establishments - Deposit cash to another Express teller account - Provide Special Services facility that includes: - Globe, Touch Mobile Prepaid reloading - Express Online and Express Mobile enrollments activation - PIN change  With our full service ATMs, you are on top of your finances. ",,,www.bpiexpressonline.com,,,,,,,,Bank of the Philippine Islands Express Teller ATM,Riverbank's Center A. Bonifacio AvenueMARIKINA  METRO MANILA,,http://www.bpiexpressonline.com,
Automatic Teller Machines,,,,,"This Banco de Oro ATM Machine is located at G/F Riverbanks Mall  annex near Bonifacio Ave.   , MARIKINA, METRO MANILA. Access your account from more than 1,400 BDO ATM's nationwide 24x7. BDO ATMs are conveniently located in malls, department stores, grocery stores, hospitals, convenience stores, fast food outlets, gasoline stations and selected corporate clients sites.  With BDO ATMs, you may: - Check your Account or Cash Card balance - Withdraw up to Php 50,000.00 cash per day - Transfer money (Funds Transfer) to your own or other enrolled BDO bank accounts or Cash Card accounts - Pay your bills immediately to over 60 accredited companies or merchants (no need to enroll selected companies or merchants) - Load SMART, Talk 'N Text, Globe, Touch Mobile (TM) and SUN prepaid mobile phone - Avail of cash advance from your Amex, JCB, MasterCard or Visa credit card - Order more Checkbooks ",,,www.bdo.com.ph/personal/electronicbanking/atm.asp,,,,,,,,Banco de Oro Automatic Teller Machine,G/F Riverbanks Mall annex near Bonifacio Ave.MARIKINA METRO MANILA,,http://www.bdo.com.ph/personal/electronicbanking/atm.asp,
Automatic Teller Machines,,,,,"This Bancnet ATM is located at RIVERSIDE MALL, A. BONIFACIO AVE., MARIKINA CITY, METRO MANILA.  In keeping abreast with the evolving needs of bank clients, BancNet has introduced several innovations that have transformed the ATM card to a multifunction debit card.  Aside from the traditional cash withdrawal and balance inquiry service, BancNet also provides a wide range of services available through the ATM such as:  Bills Payment Checkbook Request Credit Card Cash Advance Intra/ Inter Bank Funds Transfer Prepaid Phone Reload  Through interconnection with other ATM consortia in the country- Expressnet and Megalink, and international card networks VISA, Diners Club, Discover Card, JCB and China Union Pay, BancNet provides not only the widest nationwide access to their accounts but worldwide convenience as well. ",,,www.bancnetonline.com,,,,,,,,RCBC SAVINGS Bancnet ATM,"RCBC SAVINGS RIVERSIDE MALL, A. BONIFACIO AVE.MARIKINA CITY METRO MANILA",,http://mailhide.recaptcha.net/d?k=01NLSjS7aEQYA6hW-ze4Bsnw==&c=RX7wI8xSQieuU_2OjpKaYG75UQpv2kSxzTZ0HRygzpQ= http://www.bancnetonline.com,
Automatic Teller Machines,,,,,"This Bancnet ATM is located at A1-24 RIVERBANKS ARCADE, RIVERBANKS CTR, 84 A. BONIFACIO AVE, MARIKINA CITY, METRO MANILA.  In keeping abreast with the evolving needs of bank clients, BancNet has introduced several innovations that have transformed the ATM card to a multifunction debit card.  Aside from the traditional cash withdrawal and balance inquiry service, BancNet also provides a wide range of services available through the ATM such as:  Bills Payment Checkbook Request Credit Card Cash Advance Intra/ Inter Bank Funds Transfer Prepaid Phone Reload  Through interconnection with other ATM consortia in the country- Expressnet and Megalink, and international card networks VISA, Diners Club, Discover Card, JCB and China Union Pay, BancNet provides not only the widest nationwide access to their accounts but worldwide convenience as well. ",,,www.bancnetonline.com,,,,,,,,PSBANK Bancnet ATM,"PSBANK A1-24 RIVERBANKS ARCADE, RIVERBANKS CTR, 84 A. BONIFACIO AVEMARIKINA CITY METRO MANILA",,http://mailhide.recaptcha.net/d?k=01NLSjS7aEQYA6hW-ze4Bsnw==&c=RX7wI8xSQieuU_2OjpKaYG75UQpv2kSxzTZ0HRygzpQ= http://www.bancnetonline.com,
,,,,,,,,,,,,,,,,,,,,
Overseas Employment Agency,,,,,"Geo Sphere Recruitment Philippines Inc is an overseas employment recruitment agency accredited with the Philippine Overseas Employment Administration. Geo Sphere Recruitment Philippines Inc  has offices at 2/F Jbc Clarion Bldg 174 A Bonifacio Avenue Tanong, Marikina. ",,,www.geosphere-recruitment.com,,,,,,,,GEO SPHERE RECRUITMENT PHILIPPINES INC,"2/F JBC CLARION BLDG 174 A BONIFACIO AVENUE TANONG, MARIKINA",,http://mailhide.recaptcha.net/d?k=01NLSjS7aEQYA6hW-ze4Bsnw==&c=7yvM-IRSgOJv4d7cuXIEoyh28elPc6fkhVBuJ0RwgaKNgBV37l64h1VJp4zMo0lG http://www.geosphere-recruitment.com,9973679/0999-9956881/0925-6878532
Eatery - Restaurant,,,,,"MANG INASAL is a Eatery - Restaurant business in MARIKINA,METRO MANILA ",,,,,,,,,,,MANG INASAL,A. BONIFACIO AVE. RIVERBANKS MALLMARIKINA METRO MANILA,,,
Information Technology,,,,,"ThinkBIT has witnessed continuous growth in both clienteles and portfolio ever since it was established in 2014. Our in-house team of designers, developers, and marketers assures quality delivery of projects such as:  - Logo Designs, UI/UX Mockups - Website Development, Website Concept Design - Web and Mobile apps(Android and iOS) - Business System Development (Inventory, HRM, School System, Event Registration) - Digital Marketing, SEO marketing, Social Media Management  We strive to provide and help our clients create not just what they want, but also what they need because here at ThinkBIT, we create functionality with intuitive design that's within your budget, time, and scope. We don’t simply create or re-create, we make it better. One step ahead of the trend.  We strive to provide value and with it, the growth of your business.  ",,,thinkbitsolutions.com,,,,,,,,ThinkBIT Solutions Phils. Inc.,#24 21st Avenue TagumpayQuezon City METRO MANILA,,http://mailhide.recaptcha.net/d?k=01NLSjS7aEQYA6hW-ze4Bsnw==&c=2TgvquaVhE9Op01ZyjGzl_F03xvbfvRUVTmomU_iPoo= http://thinkbitsolutions.com,023649273
Advertising,,,,,"Mega Media Internet Advertising Inc. has 20,000,000 online digital market followers. Services offered: Search Engine Optimization (SEO), Social Media Management (SMM), Viral Marketing, Online Influencer, Influencer Marketing, Online Reputation Management ",,,www.megamedia.ph,,,,,,,,Mega Media Internet Advertising Inc.,"267 Bonny Serrano Avenue, Murphy Cubao San RoqueQuezon City METRO MANILA",,http://mailhide.recaptcha.net/d?k=01NLSjS7aEQYA6hW-ze4Bsnw==&c=88G5DTF5CbSBC6Sw5o3zPfVQb0K6slazsVUfY5cmpXM= http://www.megamedia.ph,025133436
Learning and Business Events,,,,,"Our company is a community abound with speakers, consultants and talents having an experience of 10-20 years in our respective core  and technical competencies  focused in Strategic Management, Financial Management, Entrepreneurship, Leadership, Motivation Engineer, Sales and Marketing, Human Resource and Organizational Development, and Events Management.  We exist for the chief purpose of educating every Filipino on the critical yet relevant topics of today. Then we package it uniquely! We are an organization in the country that touts collaboration amongst experts and professionals.  We embark in offering people a new and dynamic form of information, utilization of social media outlets, and structured corporate learning, public learning, and business events. Our focal commitment is holistic and adaptable to what is currently needed today.  Our Services - Corporate Learning - Events Management - Consultancy - Speakers Bureau ",,,www.whiteboardlearning.ph,,,,,,,,Whiteboard,"No. 22 Km. 16 De Castro St. Ortigas Ave. No. 22 Km. 16 De Castro St. Ortigas Ave. Brgy Santa Lucia, Pasig City 1608CITY OF PASIG Metro Manila",,http://mailhide.recaptcha.net/d?k=01NLSjS7aEQYA6hW-ze4Bsnw==&c=S_eUi6BSyz6MHKNb9S0qkqOEUUSHYkqS_nQ3XZbKbw4= http://www.whiteboardlearning.ph,02 267 5635
"Event Management, Digital Marketing, Social Media Marketing, Website Development Maintenance Content",,,,,"Captured Dream Productions is a leader in event management in Manila, Philippines.  We create experiences that make memories last for a lifetime.  We  at  Captured  Dream  bring  a  fresh  and  dynamic  perspective  to  events,  media  productions  and marketing promotion.  We are composed of young and seasoned professionals from different walks of life, brought together by three things: fresh and forward-looking ideas, a passion for production, and dreams that go beyond borders.  We believe in a hands-on approach in everything that we do. We create bespoke, personalized services because every client is different, we understand our clients and cater to their unique needs. At the same time, we believe in keeping to the spirit of adventure that comes with chasing one’s dream. And that’s what we want – to help you reach for your stars.  Our  diverse  portfolio  includes  handling  high  profile  corporate  events,  fashion  shows,  branding,  ad campaigns, digital and social media marketing, team building, and community services.   ",,,www.captured-dream.com,,,,,,,,Captured Dream Productions,"Unit 3301, 33rd Floor, One Corporate Center, Julia Vargas Street Cor. Meralco Avenue OrtigasPasig METRO MANILA",,http://mailhide.recaptcha.net/d?k=01NLSjS7aEQYA6hW-ze4Bsnw==&c=LDpNBjzHsl5kXXdA6xlzb8OMngIKZcCiQus1TThaick= http://www.captured-dream.com,+6325719000
SERVICES,,,,,"TACTICAL MIX MARKETING COMMUNICATION SERVICES INC is an Advertising, Promotions, Public Relations, Events, Production,& Publishing Group in Ortigas Center, Pasig City, Phils.  OUR PREMIER SERVICES  MARKETING & SALES â€“ Strategies & Programs  Integration  Promodizing  ADVERTISING â€“ Strategies  Creatives  Media Planning & Placement  PUBLIC RELATIONS / PUBLICITY - Strategies  Messaging  Media Placement  PROMOTIONS â€“ Collaterals  Installations  Premium Items  WRITING & EDITING SERVICES â€“ Editorial Design  Copywriting  Scripts Press Releases  News & Features  Books Annual Reports  Executive Communique Technical Writing (Capable in various languages)  GRAPHIC DESIGN & PRINT PRODUCTION â€“ Layout Design & Artworks  Page & Materials Planning  Printing: offset, digital, large format  PHOTOGRAPHY â€“ Product  Ad/Collateral Visuals  Portraiture Landscape  Coverages  Documentation  VIDEO PRODUCTON / MULTIMEDIA - Company/Project/Product Profiles Documentaries  Instructional/Educational Coverages  Post-Production â€“ non-linear editing, recording, scoring, animation, conversion, transfers, multiplication  ELECTRONIC/OPTICAL PRODUCTIONS â€“ E-books  Product & Sales CD or DVD kits  WEB DESIGN & DEVELOPMENT â€“ Content Planning & Writing  Programming Maintenance & Program Technical Support  EVENTS MANAGEMENT â€“ Launchings  Brand Activation  Sales Rallies & Promo Activities  Corporate Events  Stage Shows Stage Designs  Conferences, Training & Seminars  IEC CAMPAIGNS (Information, Education, Communication) / PUBLIC SERVICE ADS  PUBLISHING  PROJECT CURATORS & EXHIBIT DESIGN,DEVELOPMENT & FABRICATION  TELEVISION SPECIALS PRODUCTION  CORPORATE / INSTITUTIONAL COMMUNICATION /  EMPLOYEE COMMUNICATION  BUSINESS DEVELOPMENT CONSULTANCY  MARKETING RESEARCH ",,,www.tacticalmix.com,,,,,,,,TACTICAL MIX MARKETING COMMUNICATION SERVICES INC,"Unit 1203 ADB Ave. cor. Garnet Rd, Ortigas Center San AntonioCITY OF PASIG NCR",,http://mailhide.recaptcha.net/d?k=01NLSjS7aEQYA6hW-ze4Bsnw==&c=kZblRfITwpbPN3AlpkHmZYOAEdsSbenE_-iDc0mrH68= http://www.tacticalmix.com,+63 2 6874930
Internet Marketing,,,,,"LinkBuildArticles is a driven and result oriented search engine optimization (SEO) firm that offers high value quality service with most competitive, comprehensive and cost effective prices online. LinkBuildArticles is all about digital brand marketing, online reputation management, social media, content writing, manual search engine submissions and search engine optimization (SEO). We help people to have a prominent online visibility and boost your Search engine rankings to increase your sales. ",,,www.linkbuildarticles.com,,,,,,,,Link Build Articles,0/F Suite 1035 City & Land Mega Plaza ADB Ave. corner Garnet Rd. Ortigas  San AntonioCITY OF PASIG NCR,,http://mailhide.recaptcha.net/d?k=01NLSjS7aEQYA6hW-ze4Bsnw==&c=XvLKcvrGyqK4SI1xBc0wQM3Dxk6_nNPcHEiebBIDDy0= http://www.linkbuildarticles.com,+632 625 2542
Market Research,,,,,"Ipsos is an innovative, entrepreneurial, client-focused organisation, providing research services to clients on a global basis. We set ourselves high standards and aim to work collaboratively in partnership with our teams in order to service our clients most effectively.  Ipsos is proud to be the only global market research company that is still controlled and operated by market researchers. We aim to remain the natural home for intellectually curious and passionate researchers.  Our goal is simple: to be our clients' preferred research partners in our areas of specialisation, based on BQC (Better, Quicker, Cheaper) methodologies and processes. We want our clients to be proud and pleased to work with us - and we want each one of us to be proud and pleased to offer our clients high quality standards, efficiency and intelligence.  On 12th October 2011, Ipsos acquired Synovate, creating the third largest market research organisation globally. With this combination, aside from increasing our coverage globally, we have expanded and enhanced our range of services and products and acquired more expertise and experience in a wide range of specialist areas.  Ipsos Philippines is committed to providing the best research services and local insights to our clients. Aiming to transcend the usual client-agency interaction, our goal is to establish an actual partnership with our clients and not just stop at providing market data but proceed to actionable insights and recommendations that clients can integrate into their decision-making process. Our team is composed of specialists and experts in research practices, consumer segments and different market sectors.  We have specialists in the field of advertising, media, market understanding and measurement, product innovations, development and forecasting, and customer and employee research.  We also have experts in automotive, healthcare, technology and telecom, real estate, corporate reputation, international development, utilities and B2B sectors. In further support of our capability are resources in terms of regional/global industry experts; facilities in our office such as 2 FGD rooms complete with audio and video recording, one-way mirror, and simultaneous translator room; CATI facilities; online research; and IVR data capture. With presence and experience in the market since 1997, our existing long-term partnership with clients in different industries bespeaks of our commitment to uphold the Ipsos values and client charter to â€œbe our clientsâ€™ preferred research partner in our chosen areas of specialization. To achieve this, we will do our utmost to provide [them] with the right people, in the right place, at the right timeâ€¦.â€  Furthermore, we are focused on quality, strictly adhering to ESOMAR/ MORES (Marketing and Opinion Research Society of the Philippines) Code of Conduct and ISO 20252 ISO 20252 - Market, Opinion and Social Research Standards.  In the Philippines: ï‚§	3 Offices: -	Head Office â€“ Manila -	Field Offices in Cebu and Davao ï‚§	Managing Director, Philippines: Marie Lee  Infrastructure ï‚§	Full-service office established in 1997 ï‚§	100+ Full-time employees ï‚§	50+ Research Professionals  with dedicated Specialists per area of expertise  Quantitative & Qualitative Capabilities ï‚§	24 CATI stations ï‚§	300+ Field researchers/Executive interviewers ï‚§	In-house data processing  support ï‚§	Central Location / Street Intercepts ï‚§	Digital/Online/Social Media/Mobile survey capability ï‚§	ViewsCast (interactive voice response technology) capability ï‚§	Two fully-equipped focus group facilities with viewing rooms and audio and video recording equipment What we do: We explore market potential and market trends. We test products and advertising. We help our clients build long term relationships with customers. We study audiences and their perceptions of various media. We measure public opinion trends around the globe.  Our specialisations are served by six global brands recognized in all major markets:  Ipsos Connect - The Brand Communication, Advertising and Media Research Specialists Ipsos Marketing - The Innovation and Brand Research Specialists -	Market Understanding and Measurement (Ipsos MarketQuest) -	Innovation and Forecasting (Ipsos InnoQuest) -	Healthcare (Ethical) Reseach (Ipsos Healthcare) -	Qualitative (Ipsos UU) Ipsos Public Affairs - The Social Research and Corporate Reputation Specialists Ipsos Loyalty - The Customer and Employee Research Specialists Ipsos Observer - The Survey Management, Data Collection and Delivery Specialists     Why we can help you: â€¢	Our industry-specific expertise:  -	Advertising agencies -	Automotive -	Agricultural -	Call center/BPOs -	General consumer products -	Government and education -	Healthcare and pharmaceuticals -	Hotels and travel -	Industrial -	Information technology -	Luxury products -	Media -	Retail -	Real Estate -	Telecommunications -	Banking and finance -	Beers, wines and spirits -	Business-to-business -	Clothing and footwear -	Food and soft drinks -	Oil/Petroleum  Get insights daily - follow Ipsos Philippines! Facebook: https://www.facebook.com/ipsosphilippines LinkedIn: https://www.linkedin.com/company/ipsos-philippines Twitter: https://twitter.com/IpsosPhilippine  ",,,,,,,,,,,Ipsos Philippines,Unit 1401-B One Corporate Center Julia Vargas Ave. cor Meralco Ave. San AntonioCITY OF PASIG NCR,,http://mailhide.recaptcha.net/d?k=01NLSjS7aEQYA6hW-ze4Bsnw==&c=HpAeOF-hWDySL2a5x6_sMX0cJPsznQwnxSIbYLabLCQ=,+63 2 633 3997
,,,,,,,,,,,,,,,,,,,,
Digital Marketing Agency,,,,,"Propelrr is a full digital agency with the capability to integrate brandâ€™s offline and online market- ing efforts.The team is highly focused on conceptualization, execution, and iteration of digital strategies that bring revenue growth and profitability. ",,,www.propelrr.com,,,,,,,,Propelrr,"3F DMCI Homes Corporate Center, 1321 Apolinario Street BangkalCITY OF MAKATI NCR",,http://mailhide.recaptcha.net/d?k=01NLSjS7aEQYA6hW-ze4Bsnw==&c=Ji8q2BQhId0sA8oCywYGsrobSn17jpIlyN1Towzdl3g= http://www.propelrr.com,(02) 696 - 9145
Information and Communications Technology,,,,,"Strategy setting, project planning management, conference & event mgmt., media mgmt., crisis mgmt., Marketing & Research    ",,,,,,,,,,,EON – THE CORPORATE COMMUNICATIONS NETWORK,"5th Floor Valderama Building, 107 Esteban St., Legaspi Village, Makati CityMakati Metro Manila",,http://mailhide.recaptcha.net/d?k=01NLSjS7aEQYA6hW-ze4Bsnw==&c=EdX7KFPSSx8vK9XzGCtZA-_pS2JWkGl3DyMzs2r5oEY=,(632) 893-5690: 893-5642: 892-6799: 892-6899
Schools,,,,,"Malolos Marine Fishery School is a Schools business in Malolos,Bulacan ",,,,,,,,,,,Malolos Marine Fishery School,National Rd  Malolos Bulacan,,,(044) 662-7400
,,,,,"Founded on June 16, 2003, DRAGON V STEEL BARS TRADING (DV), OSHIMA TECH ENTERPRISE the first and leading metal trading and Roll Up doors services provider in Guiguinto Bulacan.  Sole Manufacturer, Supplier and Installation Services in Guiguinto Bulacan  ",,,www.oshimatech.com,,,,,,,,OSHIMA TECH,621 Ilang-IlangGuiguinto BULACAN,,http://mailhide.recaptcha.net/d?k=01NLSjS7aEQYA6hW-ze4Bsnw==&c=N7CxSaKelkClxufVXRTEvuCm9sHDUSTTtvacl0aoTFw= http://www.oshimatech.com,0447944156
Health,,,,,"G2 MEDICAL DENTAL AND PHARMACEUTICAL SUPPLIES    G2 Medical is a single proprietorship with more than10 years experience in the distribution and marketing of medicines and medical supplies with main activity being conducted in Region III. G2 medical had been doing business with both government and private hospitals. It carries imported and locally manufactured medical products.  It also has a significant market share in distribution of branded medical supplies particularly in the IV products both drugs and lines, catheters life support accessories segments and the generics market. It has its main office and store in Guiguinto, Bulacan and three pharmaceutical outlet adjacent three government hospitals in different municipality in Bulacan. Basic Information Company Name:	G2 Medical, Dental and Pharmaceutical Supplies Business Type:	Drugs and Medical Supplies Distributor  Product/Service:	Hospital and Medical Equipment Company Address:	Ilang ilang, Guiguinto, Bulacan No. of Total Employees:	11 Ownership & Capital Year Established:	2002 Legal Representative/Business Owner:	Eugenia Dv. Figueroa – Proprietor Trade & Market Main Markets:	Hospitals, Medical Laboratories and Clinics, Dialysis Center and Community Pharmacy Total Annual Sales Volume:	Below Php 5 Million    Looking forward, G2 Medical dreams to more opportunities of fulfilling business relationship with the public, by renewing its collective commitment of serving its customers whose trust and patronage has allowed G2 Medical to continue its existence.  ",,,,,,,,,,,G2 medical and dental supplies,Mcarthur Hiway Ilang-IlangGuiguinto BULACAN,,http://mailhide.recaptcha.net/d?k=01NLSjS7aEQYA6hW-ze4Bsnw==&c=mVvxpSDYEsPVPa0LpC3_DBUPgsyj3UHVOZmY7E_X8jk=,0448160193
Educational Institutions,,,,,Department of Education Accredited Private School ,,,,,,,,,,,"St. Martin de Porres Catholic School, Guiguinto","PoblacionSt. Martin De Porres Catholic School, Guiguinto Bulacan",,,(044) 794 00 50
Educational Institutions,,,,,Department of Education Accredited Private School ,,,,,,,,,,,San Ildefonso Learning Center,# 2 PoblacionSan Ildefonso Learning Center Bulacan,,,(044) 916 03 87
Public Elementary School,,,,,"Guiguinto Central School is a DepED Managed urban public Elementary school located in Guiguinto, Bulacan. ",,,,,,,,,,,Guiguinto Central School,Mc Arthur HighwayGuiguinto Bulacan,,,794-6061
Cooperatives,,,,,"Caniogan Credit & Dev Corp. is a Cooperatives business in Guiguinto,Bulacan ",,,,,,,,,,,Caniogan Credit & Dev Corp.,McArthur Highway  Guiguinto Bulacan,,,(044) 690-1286
,,,,,,,,,,,,,,,,,,,,
flour manufacturer,,,,,"Great Earth Food Industrial Inc was established on January 14,2010, backed by a core group of people with excellent background in manufacturing, the company made strides in this highly competitive industry through experience, knowledge and good management.  Our company is dedicated to provide exceptional products that will meet or exceed client expectations.   ",,,,,,,,,,,Great Earth Food Industrial inc.,Bldg 8 Yasmin Industrial Comp. 268 Mercado St.  PoblacionGUIGUINTO BULACAN,,http://mailhide.recaptcha.net/d?k=01NLSjS7aEQYA6hW-ze4Bsnw==&c=pO-1RMlhujg5YcrqYSG27JHh3tXLDB7wNhjWL_8b1bU=,044 794 5319
Public High School,,,,,"Guiguinto Nat'l Voc'l. High School is a DepED Managed urban Secondary Public School located in Guiguinto, Bulacan. ",,,,,,,,,,,Guiguinto Nat'l Voc'l. High School,PoblacionGuiguinto Bulacan,,http://mailhide.recaptcha.net/d?k=01NLSjS7aEQYA6hW-ze4Bsnw==&c=XXLp37BuLga7Aj3xSKFeo-kX1ZT9V_b348O-bxEA1oo=,794-2725
Retailer - Motor Vehicle Spare Parts,,,,,"Y.C.L. MOTORCYCLE PARTS AND GEN. MERCHANDIZE is a Retailer - Motor Vehicle Spare Parts business in Dasmarinas,Cavite ",,,,,,,,,,,Y.C.L. MOTORCYCLE PARTS AND GEN. MERCHANDIZE,52 SALAWAGDasmarinas Cavite,,,(046) 5179975
Retailer - Poultry feeds and other animal feeds,,,,,"MELCHOR'S POULTRY SUPPLY AND GENERAL MERCHANDISE - BRANCH is a Retailer - Poultry feeds and other animal feeds business in Dasmarinas,Cavite ",,,,,,,,,,,MELCHOR'S POULTRY SUPPLY AND GENERAL MERCHANDISE - BRANCH,UNIT B # 36 SALAWAGDasmarinas Cavite,,,0921-8293695
Lessor - Others,,,,,"LIGAYA T. BASILA COMMERCIAL SPACE RENTAL is a Lessor - Others business in Dasmarinas,Cavite ",,,,,,,,,,,LIGAYA T. BASILA COMMERCIAL SPACE RENTAL,36 SALAWAGDasmarinas Cavite,,,046-4846213
Retailer - Construction Supply,,,,,"HARRYSTAR TRADING is a Retailer - Construction Supply business in Dasmarinas,Cavite ",,,,,,,,,,,HARRYSTAR TRADING,# 13 SALAWAGDasmarinas Cavite,,,0909-5666896
Retailer - Non Essential Commodities,,,,,"HARRELLINS TRADING is a Retailer - Non Essential Commodities business in Dasmarinas,Cavite ",,,,,,,,,,,HARRELLINS TRADING,#42 SALAWAGDasmarinas Cavite,,,(046) 4821574
Contractor - Private Detective or watchman agencies,,,,,"FSR SECURITY  SERVICES, INC. is a Contractor - Private Detective or watchman agencies business in Dasmarinas,Cavite ",,,,,,,,,,,"FSR SECURITY  SERVICES, INC.",42 SalawagDasmarinas Cavite,,,(046) 5401611
Contractors & Builders,,,,,"Arcenal Systems Engineering is a Contractors & Builders business in Dasmarinas ,Cavite. They operate in 3 Branches covering the entire Philippines - Luzon, Visayas and Mindanao. Luzon branch is located in DasmariÃ±as, Cavite, Iloilo Branch in Lopez Jaena Street and Davao in Mindanao. They specialize in both structural and designs as they have their own team of veterans in both architecture and engineering. Arcenal Systems Engineering is a business by three engineers, the Arcenal brothers - one a civil engineer, another a mechanical engineer and then an electrical engineer. They have put up most Bingo Bonanza's in the Philippines, as well as SM Mall affiliates all over the country. Another huge client was just added on their list, which is Shopwise and Robinson Malls. ",,,,,,,,,,,Arcenal Systems Engineering,"#42 Molino Road cor. Salitran (Jose Abad Santos) Road Molino-Paliparan Road, Salawag IntersectionCITY OF DASMARIÃ‘AS CAVITE",,http://mailhide.recaptcha.net/d?k=01NLSjS7aEQYA6hW-ze4Bsnw==&c=M3l9YFfMlZh8zNNeylIGwC1d_CULD27iVZI6kxqWLx4=,02 496 9096
,,,,,,,,,,,,,,,,,,,,
"Contractor - General Engineering, general building and specialty contractors",,,,,"ARCENAL SYSTEM ENGINEERING is a Contractor - General Engineering, general building and specialty contractors business in Dasmarinas,Cavite ",,,,,,,,,,,ARCENAL SYSTEM ENGINEERING,# 42 MOLINO -PALIPARAN RD. SALAWAGDasmarinas Cavite,,,033 202228
Retailer - Non Essential Commodities,,,,,"ADEPT BYTE TRADING is a Retailer - Non Essential Commodities business in Dasmarinas,Cavite ",,,,,,,,,,,ADEPT BYTE TRADING,"#42, MOLINO RD. SALAWAGDasmarinas Cavite",,,(046) 4842574
Automatic Teller Machines,,,,,"This BPI Express Teller ATM is located at G/F Shopwise Fiesta  Araneta Center  Cubao   , QUEZON C ITY, METRO MANILA. Access your cash easily with BPI's 1,700 Automated Teller Machines (ATM) strategically located nationwide. With the BPI Express Teller ATM facility available 24 hours a day, 7 days a week, you now have instant access to your cash for your various needs.  The BPI Express Teller ATM is more than just for withdrawals. It  also provides you with unparalleled banking services to match your active lifestyle, allowing you to do the following:  - Inquire your Account Balance anytime, anywhere - Transfer funds to and from another enrolled Express Teller Account - Pay your bills to over 170 partner merchants, utilities and establishments - Deposit cash to another Express teller account - Provide Special Services facility that includes: - Globe, Touch Mobile Prepaid reloading - Express Online and Express Mobile enrollments activation - PIN change  With our full service ATMs, you are on top of your finances. ",,,www.bpiexpressonline.com,,,,,,,,Bank of the Philippine Islands Express Teller ATM,G/F Shopwise Fiesta Araneta Center CubaoQUEZON C ITY METRO MANILA,,http://www.bpiexpressonline.com,
Automatic Teller Machines,,,,,"This BPI Express Teller ATM is located at 235 Roosevelt Ave.  SFDM   , QUEZON C ITY, METRO MANILA. Access your cash easily with BPI's 1,700 Automated Teller Machines (ATM) strategically located nationwide. With the BPI Express Teller ATM facility available 24 hours a day, 7 days a week, you now have instant access to your cash for your various needs.  The BPI Express Teller ATM is more than just for withdrawals. It  also provides you with unparalleled banking services to match your active lifestyle, allowing you to do the following:  - Inquire your Account Balance anytime, anywhere - Transfer funds to and from another enrolled Express Teller Account - Pay your bills to over 170 partner merchants, utilities and establishments - Deposit cash to another Express teller account - Provide Special Services facility that includes: - Globe, Touch Mobile Prepaid reloading - Express Online and Express Mobile enrollments activation - PIN change  With our full service ATMs, you are on top of your finances. ",,,www.bpiexpressonline.com,,,,,,,,Bank of the Philippine Islands Express Teller ATM,235 Roosevelt Ave. SFDMQUEZON C ITY METRO MANILA,,http://www.bpiexpressonline.com,
Automatic Teller Machines,,,,,"This BPI Express Teller ATM is located at Level 1 Main Mall  Quirino H-way  Novaliches   , QUEZON C ITY, METRO MANILA. Access your cash easily with BPI's 1,700 Automated Teller Machines (ATM) strategically located nationwide. With the BPI Express Teller ATM facility available 24 hours a day, 7 days a week, you now have instant access to your cash for your various needs.  The BPI Express Teller ATM is more than just for withdrawals. It  also provides you with unparalleled banking services to match your active lifestyle, allowing you to do the following:  - Inquire your Account Balance anytime, anywhere - Transfer funds to and from another enrolled Express Teller Account - Pay your bills to over 170 partner merchants, utilities and establishments - Deposit cash to another Express teller account - Provide Special Services facility that includes: - Globe, Touch Mobile Prepaid reloading - Express Online and Express Mobile enrollments activation - PIN change  With our full service ATMs, you are on top of your finances. ",,,www.bpiexpressonline.com,,,,,,,,Bank of the Philippine Islands Express Teller ATM,Level 1 Main Mall Quirino H-way NovalichesQUEZON C ITY METRO MANILA,,http://www.bpiexpressonline.com,
Automatic Teller Machines,,,,,"This BPI Express Teller ATM is located at Retiro cor. Mayon Sts.  La Loma   , QUEZON C ITY, METRO MANILA. Access your cash easily with BPI's 1,700 Automated Teller Machines (ATM) strategically located nationwide. With the BPI Express Teller ATM facility available 24 hours a day, 7 days a week, you now have instant access to your cash for your various needs.  The BPI Express Teller ATM is more than just for withdrawals. It  also provides you with unparalleled banking services to match your active lifestyle, allowing you to do the following:  - Inquire your Account Balance anytime, anywhere - Transfer funds to and from another enrolled Express Teller Account - Pay your bills to over 170 partner merchants, utilities and establishments - Deposit cash to another Express teller account - Provide Special Services facility that includes: - Globe, Touch Mobile Prepaid reloading - Express Online and Express Mobile enrollments activation - PIN change  With our full service ATMs, you are on top of your finances. ",,,www.bpiexpressonline.com,,,,,,,,Bank of the Philippine Islands Express Teller ATM,Retiro cor. Mayon Sts. La LomaQUEZON C ITY METRO MANILA,,http://www.bpiexpressonline.com,
Automatic Teller Machines,,,,,"This BPI Express Teller ATM is located at Quezon Inst. Compound  E. Rodriguez Sr. Avenue   , QUEZON C ITY, METRO MANILA. Access your cash easily with BPI's 1,700 Automated Teller Machines (ATM) strategically located nationwide. With the BPI Express Teller ATM facility available 24 hours a day, 7 days a week, you now have instant access to your cash for your various needs.  The BPI Express Teller ATM is more than just for withdrawals. It  also provides you with unparalleled banking services to match your active lifestyle, allowing you to do the following:  - Inquire your Account Balance anytime, anywhere - Transfer funds to and from another enrolled Express Teller Account - Pay your bills to over 170 partner merchants, utilities and establishments - Deposit cash to another Express teller account - Provide Special Services facility that includes: - Globe, Touch Mobile Prepaid reloading - Express Online and Express Mobile enrollments activation - PIN change  With our full service ATMs, you are on top of your finances. ",,,www.bpiexpressonline.com,,,,,,,,Bank of the Philippine Islands Express Teller ATM,Quezon Inst. Compound E. Rodriguez Sr. AvenueQUEZON C ITY METRO MANILA,,http://www.bpiexpressonline.com,
Automatic Teller Machines,,,,,"This BPI Express Teller ATM is located at 1 Biak na Bato St.  corner Quezon Avenue   , QUEZON C ITY, METRO MANILA. Access your cash easily with BPI's 1,700 Automated Teller Machines (ATM) strategically located nationwide. With the BPI Express Teller ATM facility available 24 hours a day, 7 days a week, you now have instant access to your cash for your various needs.  The BPI Express Teller ATM is more than just for withdrawals. It  also provides you with unparalleled banking services to match your active lifestyle, allowing you to do the following:  - Inquire your Account Balance anytime, anywhere - Transfer funds to and from another enrolled Express Teller Account - Pay your bills to over 170 partner merchants, utilities and establishments - Deposit cash to another Express teller account - Provide Special Services facility that includes: - Globe, Touch Mobile Prepaid reloading - Express Online and Express Mobile enrollments activation - PIN change  With our full service ATMs, you are on top of your finances. ",,,www.bpiexpressonline.com,,,,,,,,Bank of the Philippine Islands Express Teller ATM,1 Biak na Bato St. corner Quezon AvenueQUEZON C ITY METRO MANILA,,http://www.bpiexpressonline.com,
Automatic Teller Machines,,,,,"This BPI Express Teller ATM is located at TDC Supermarket  Susano Rd.  Novaliches   , QUEZON C ITY, METRO MANILA. Access your cash easily with BPI's 1,700 Automated Teller Machines (ATM) strategically located nationwide. With the BPI Express Teller ATM facility available 24 hours a day, 7 days a week, you now have instant access to your cash for your various needs.  The BPI Express Teller ATM is more than just for withdrawals. It  also provides you with unparalleled banking services to match your active lifestyle, allowing you to do the following:  - Inquire your Account Balance anytime, anywhere - Transfer funds to and from another enrolled Express Teller Account - Pay your bills to over 170 partner merchants, utilities and establishments - Deposit cash to another Express teller account - Provide Special Services facility that includes: - Globe, Touch Mobile Prepaid reloading - Express Online and Express Mobile enrollments activation - PIN change  With our full service ATMs, you are on top of your finances. ",,,www.bpiexpressonline.com,,,,,,,,Bank of the Philippine Islands Express Teller ATM,TDC Supermarket Susano Rd. NovalichesQUEZON C ITY METRO MANILA,,http://www.bpiexpressonline.com,
,,,,,,,,,,,,,,,,,,,,
Automatic Teller Machines,,,,,"This BPI Express Teller ATM is located at Ayala Ave. cor. Buendia   , MAKATI, METRO MANILA. Access your cash easily with BPI's 1,700 Automated Teller Machines (ATM) strategically located nationwide. With the BPI Express Teller ATM facility available 24 hours a day, 7 days a week, you now have instant access to your cash for your various needs.  The BPI Express Teller ATM is more than just for withdrawals. It  also provides you with unparalleled banking services to match your active lifestyle, allowing you to do the following:  - Inquire your Account Balance anytime, anywhere - Transfer funds to and from another enrolled Express Teller Account - Pay your bills to over 170 partner merchants, utilities and establishments - Deposit cash to another Express teller account - Provide Special Services facility that includes: - Globe, Touch Mobile Prepaid reloading - Express Online and Express Mobile enrollments activation - PIN change  With our full service ATMs, you are on top of your finances. ",,,www.bpiexpressonline.com,,,,,,,,Bank of the Philippine Islands Express Teller ATM,Ayala Ave. cor. BuendiaMAKATI METRO MANILA,,http://www.bpiexpressonline.com,
Dental Clinic,,,,,"The Philippines is quickly rising as one of the favorite destinations for dental tourism. Our dentists are highly competent and offer honest, reliable services to patients. Also, Filipino dentists can easily match the level of competence and skill of their foreign counterparts. Moreover, many of the advances in dental technology, including state-of-the-art equipment and new innovations such as dental implants are already being used in the country. It would actually be quite easy for a foreigner to find a dentist in Makati, Philippines who offers excellent services, high-quality prosthetics, and great value for his money. Even in other major cities in the country, competent dentists are capable of providing the best oral health care at par with their foreign counterparts. ",,,www.gerochidental.com,,,,,,,,Gerochi Dental and Implant Center,"4th Level Montivar Building 34 Jupiter corner Planet Streets, Bel-Air Village Bel-AirCITY OF MAKATI NCR",,http://mailhide.recaptcha.net/d?k=01NLSjS7aEQYA6hW-ze4Bsnw==&c=DdVRx82EUcE7x-ZEGIaB7XpnhBSFvEnkuBkk1UdVhJA= http://www.gerochidental.com,02 403 3032
Information and Communications Technology,,,,,"BELL TELECOMMUNICATION PHILIPPINES, INC. is a Information and Communications Technology located in 4/F Pacific Star Bldg. Sen. Gil Puyat Avenue Makati City Metro Manila ",,,www.belltel.ph,,,,,,,,"BELL TELECOMMUNICATION PHILIPPINES, INC.",4/F Pacific Star Bldg. Sen. Gil Puyat AvenueMakati City Metro Manila,,http://www.belltel.ph,(632) 6800-2355
Information and Communications Technology,,,,,"Cornersteel Systems Corporation is one of the country's leading facility solutions providers for e-enabled working environments Cornersteel showcases a full range of products and services which include interior works, systems and custom furniture, seating, carpets, UPS systems, networking, security and other computer support system. Cornersteel creates flexible, seamless and future ready facilities for corporate, call centers, backroom office, data center and other workplace environments. ",,,www.comfacgroup.com,,,,,,,,CORNERSTEEL SYSTEMS CORPORATION,"19Th Floor, The World Centre, 330 Sen. Gil PuyatMakati City Metro Manila",,http://mailhide.recaptcha.net/d?k=01NLSjS7aEQYA6hW-ze4Bsnw==&c=ntYPIEKRll2l_yCCwG-XYbJvFItl9CSF4fekR9R8rfs= http://www.comfacgroup.com,(632) 867-8301 to 27
Information and Communications Technology,,,,,CCAP is an association of outsource contact center service providers.  It counts as members only those who assiduously work towards operational excellence.  Its primary goal is to spearhead international marketing efforts for its members.  There are currently 16 companies in the association. ,,,www.ccap.ph,,,,,,,,CALL CENTER ASSOCIATION OF THE PHILIPPINES,2/F BPI-Fareast Bldg. Sen Gil Puyat AvenueMakati City Metro Manila,,http://www.ccap.ph,(632) 881-1111
Information and Communications Technology,,,,,"It was November 1982 when DBP Data Center, Inc. (DCI) started its operations with the purpose of implementing the computerization program of the Development Bank of the Philippines (DBP). Armed with its expertise in banking systems and facilities management, DCI embarked towards the development and implementation of non-banking systems and offers a wide range of Information Technology services both for the public and the private sector. In its 23 years of committed service, DCI has evolved from a major engine of growth for national development to an integrated IT-driven company. ",,,www.dci.ph,,,,,,,,DBP DATA CENTER INC. (DCI),22nd Flr. Pacific Star Bldg. Sen Gil Puyat AvenueMakati City Metro Manila,,http://mailhide.recaptcha.net/d?k=01NLSjS7aEQYA6hW-ze4Bsnw==&c=3QDeCkZIneYFqafNbge-Ww== http://www.dci.ph,(632) 848-0277
,,,,,"Caltex (Asia) Limited is a  located in  35/F Yuchengco Tower, RCBC Plaza, 6819 Ayala Ave., Mkti. City ",,,,,,,,,,,Caltex (Asia) Limited,"35/F Yuchengco Tower, RCBC Plaza, 6819 Ayala Ave., Mkti. City",,,(02) 793-4000
Construction Companies,,,,,"Nippon Express Philippines Corp. is a Construction Companies located in  Unit 2701, Yuchengco Tower, RCBC Plaza, 6819 Ayala Ave., Mkti. City ",,,,,,,,,,,Nippon Express Philippines Corp.,"Unit 2701, Yuchengco Tower, RCBC Plaza, 6819 Ayala Ave., Mkti. City",,,(02) 752-1111
"Toys, Souvenirs, Gifts, Jewelry and Decors",,,,,"Rizal Commercial Banking Corp. is a Toys, Souvenirs, Gifts, Jewelry and Decors located in  RCBC Plaza, 6819 Ayala Ave., Mkti. City ",,,,,,,,,,,Rizal Commercial Banking Corp.,"RCBC Plaza, 6819 Ayala Ave., Mkti. City",,,(02) 894-9055
,,,,,,,,,,,,,,,,,,,,
Trade and Business Associations,,,,,"The Spanish Chamber of Commerce, (CÃ¡mara Oficial EspaÃ±ola de Comercio Industria y NavegaciÃ³n en Filipinas, Inc.) was established on July 16, 1899 shortly after the American occupation of Manila. As one of the pioneers of commercial chambers established in the Philippines, the objectives of La CÃ¡mara are to expand business opportunities to its members and to perpetuate the centuries old commercial/economic bond between the Philippines and Spain.  La CÃ¡mara is a member ? based organization that draws its members from the Philippines. Its current membership consists of various companies and individuals who are interested in Philippine ? Spanish Businesses and the extension of Spanish Trade to the Philippines.  La CÃ¡mara has an extensive network of the Spanish Chamber of Commerce all over the world, which gives the opportunity for its members to expand their businesses locally and internationally. The Spanish Chamber works hand in hand with the Commercial Office of the Embassy of Spain, which also provides commercial information and trade offers that are vital to La CÃ¡mara members in increasing Philippine ? Spanish trade and investment. The Chamber regularly conducts activities such as trade fair exhibitions, fellowship lunches, product exhibition which members could actually participate in. It also renders the following services to its members: Annual Directory, Market Intelligence, Trade Fair and Product Exhibits, Data Bank, Monthly Newsletter, Certificate of Origin, Information Services and Identification of Commercial and Financial Associates.  La CÃ¡mara is an organization that focuses not only on fostering and promoting Bilateral Trade between the Philippines and Spain, but also on helping and participating in the development of the Philippines.  ",,,www.lacamara.com.ph,,,,,,,,Spanish Chamber of Commerce in the Philippines,Axa builiding Unit 1009 Philippine AXA Life Centre 1286 Sen. Gil Puyat Avenue cor. Tindalo Street Makati City Philippines 1229MAkati Metro Manila,,http://mailhide.recaptcha.net/d?k=01NLSjS7aEQYA6hW-ze4Bsnw==&c=gJvfEXP4n_HCDXar4y0YXQJhUPRCKXjOeZi-Yychkyg= http://www.lacamara.com.ph,02 8867643
Web Developer,,,,,"VIIHOTEL & RESORT specializes user-friendly online booking system that provides fast and reliable service specially for hotel & resort. VIIHotel & Resort are conducting free trial demo, with back-end maintenance and readymade template for hotel/resort.  ",,,,,,,,,,,VIIHotel & Resort powered by VIIWorks,"Unit G104, West of Ayala Tower, 252 Sen. Gil Puyat Avenue, Makati City, 1223  Pio Del PilarCITY OF MAKATI NCR",,,+632-846-8844
Training Center,,,,,"The Med-San Therapy & Training Center offers massage therapy training programs in Cainta, Rizal and nearby places. Our massage therapy school gives you the skills you need to become an effective and efficient massage therapist in the healthcare industry. We are dedicated to provide quality and holistic education for individuals pursuing a professional career in the field of massage therapy. We also offer a variety of advanced courses and continuing education classes for students and professionals. ",,,medsan-therapy.blogspot.com,,,,,,,,Med-San Therapy & Training Center,"27 Paris Street, Cypress Village Santo DomingoCainta RIZAL",,http://mailhide.recaptcha.net/d?k=01NLSjS7aEQYA6hW-ze4Bsnw==&c=_1k0e3nciv2LSx5s6cdmXzyQENCudD6qif9MlO-FGP8= http://medsan-therapy.blogspot.com,025154471
Schools,,,,,"Colegio De San Antonio is a Schools  business in Antipolo ,Rizal ",,,,,,,,,,,Colegio De San Antonio,San Antonio Ave AntipoloRizal,,,650-5522
"Toys, Souvenirs, Gifts, Jewelry and Decors",,,,,"ANTIQUES AS ACCENTS, INC. is a Toys, Souvenirs, Gifts, Jewelry and Decors located in # 158 Marick Drive, Marick Subd., Brgy., Sto. Domingo Cainta Rizal ",,,www.antiquesaccents.com,,,,,,,,"ANTIQUES AS ACCENTS, INC.","# 158 Marick Drive, Marick Subd., Brgy., Sto. DomingoCainta Rizal",,http://www.antiquesaccents.com,(632) 656-1615
General Merchandise,,,,,"Ronnen General Merchandise is a DTI registered business with DTI Certificate No. 00566051. We are on to wholesale and retail of infants, kids and adults wear. We are also supplying baby essentials to different provinces and some to Metro Manila. Right now, we only have our online shop at multiply. Soon, we\'ll be having our own showroom. We are open to resellers and distributors, especially to provinces who wants to earn extra income by selling apparels and other home essentials. Please contact us thru email or mobile phone.  ",,,myprincessmaxine.multiply.com,,,,,,,,RONNEN GENERAL MERCHANDISE,Blk 34 San JuanTaytay Rizal,,http://mailhide.recaptcha.net/d?k=01NLSjS7aEQYA6hW-ze4Bsnw==&c=mJSY77sK1Lvji4MqTymfAzlfvKWtVoSIgpv-II6vTs4= http://myprincessmaxine.multiply.com,+639285053621
Colleges and Universities,,,,,CHED Certified Higher Education Institution ,,,,,,,,,,,National College of Business and Arts-Taytay,Brgy. San JuanTaytay Rizal,,,(02) 658-6992/660-7895/658-7104
Furniture and Houseware,,,,,"J.A. EUSTAQUIO ENTERPRISES is a Furniture and Houseware located in 4 CRUIZERO ST., MERALCO VILL. BRGY. SAN JUAN Taytay Rizal ",,,,,,,,,,,J.A. EUSTAQUIO ENTERPRISES,"4 CRUIZERO ST., MERALCO VILL. BRGY. SAN JUANTaytay Rizal",,,660 7586
"Toys, Souvenirs, Gifts, Jewelry and Decors",,,,,"Piazza, Incorporated is a Toys, Souvenirs, Gifts, Jewelry and Decors located in 9 Camia St., Royal Subd., San Juan Taytay Rizal ",,,www.piazza.com,,,,,,,,"Piazza, Incorporated","9 Camia St., Royal Subd., San JuanTaytay Rizal",,http://mailhide.recaptcha.net/d?k=01NLSjS7aEQYA6hW-ze4Bsnw==&c=KHwwDrMRcNg426C9ZJspGFgLpns8KrRqqYu27JjF580= http://www.piazza.com,(632) 286-5047
,,,,,,,,,,,,,,,,,,,,
"Toys, Souvenirs, Gifts, Jewelry and Decors",,,,,"JC JEM'S INTERNATIONAL EXPORT, INC. is a Toys, Souvenirs, Gifts, Jewelry and Decors located in JC JEM's Compound, Brgy. San Juan, Taytay Rizal ",,,,,,,,,,,"JC JEM'S INTERNATIONAL EXPORT, INC.","JC JEM's Compound, Brgy. San Juan,Taytay Rizal",,,(632) 658-0840 / (632) 658-0841
Cooperative,,,,,Sto. Tomas de Villanueva Parish Multi-Purpose Cooperative is a Cooperative located in Multi-Purpose #3 Gabriel St. Santolan Pasig City Metro Manila ,,,,,,,,,,,Sto. Tomas de Villanueva Parish Multi-Purpose Cooperative,Multi-Purpose #3 Gabriel St. SantolanPasig City Metro Manila,,http://mailhide.recaptcha.net/d?k=01NLSjS7aEQYA6hW-ze4Bsnw==&c=wzPyWY_EYLvTkVFqL3f3FGL0mZm3jO9hVk7iC0NfEDU=,682-4459
,,,,,,,,,,,,,,,,,,,,
,,,,,,,,,,,,,,,,,,,,
Educational Institutions,,,,," Ms. Teresita V. Javier Institution Offers Primary, Education ",,,,,,,,,,,St. Reymond's Nursery and Kindergarten Sch.,"69 Saudi Arabia St., Better LivingParanaque Metro Manila",,,823-47-19
Cargo Forwarding,,,,,"SOUTHLINK TRANSPORT CORPORATION is a Cargo Forwarding business in Bacoor,Cavite ",,,,,,,,,,,SOUTHLINK TRANSPORT CORPORATION,222 NIOG IIIBacoor Cavite,,,(02)533-2042
Sari Sari Store,,,,,"CATHRYNE'S STORE is a SARI-SARI STORE business in SAN FERNANDO ,PAMPANGA ",,,,,,,,,,,CATHRYNE'S STORE,SAN NICOLAS SAN FERNANDO  PAMPANGA,,,(045) 860-3071
Public High School,,,,,"Gatbo National High School is a DepED Managed partially urban Secondary Public School located in City Of Sorsogon (Capital), Sorsogon. ",,,,,,,,,,,Gatbo National High School,City Of Sorsogon (Capital) Sorsogon,,,9192086151
Public High School,,,,,"Celestino G. Tabuena Memorial NHS is a DepED Managed partially urban Secondary Public School located in City Of Sorsogon (Capital), Sorsogon. ",,,,,,,,,,,Celestino G. Tabuena Memorial National High School,City Of Sorsogon (Capital) Sorsogon,,http://mailhide.recaptcha.net/d?k=01NLSjS7aEQYA6hW-ze4Bsnw==&c=jdOachf1b7Xbk2xzEiYzwGX7xdhrL7D2rsy-c11JvXo=,9189039386
"Agricultural Industries, Books, Schools Supplies And Office Supplies, Cosmetics And Herbal Products, Food And Foodstuff, Groce",,,,,"Maro's Store And Carinderia is a   Agricultural Industries, Books, Schools Supplies And Office Supplies, Cosmetics And Herbal Products, Food And Foodstuff, Groceries, Markets And Convenience Stores business located in 239 Road 11, Quezon City Metro Manila. For more information you can contact them at: 0926 434 2210 ",,,,,,,,,,,Maro's Store And Carinderia,239 Road 11Quezon City Metro Manila,,,0926 434 2210
Sari Sari Store,,,,,"DARWILL'S STORE is a Sari-sari Store business in MARIKINA,METRO MANILA ",,,,,,,,,,,DARWILL'S STORE,MINAHAN STREETMARIKINA METRO MANILA,,,948-0811
,,,,,,,,,,,,,,,,,,,,
,,,,,,,,,,,,,,,,,,,,
Sari Sari Store,,,,,"CRISTINA'S STORE is a Sari-sari Store business in MARIKINA,METRO MANILA ",,,,,,,,,,,CRISTINA'S STORE,"OPAL STREET, MINAHAN ROADMARIKINA METRO MANILA",,,948-0893
Eatery - Carinderia,,,,,"BABY'S LUTONG ULAM is a Eatery - Carinderia business in MARIKINA,METRO MANILA ",,,,,,,,,,,BABY'S LUTONG ULAM,MINAHAN STREETMARIKINA METRO MANILA,,,
Sari Sari Store,,,,,"CHARITO Sari Sari Store is a Sari Sari Store business in PASIG ,METRO MANILA ",,,,,,,,,,,CHARITO Sari Sari Store,"LOT II BKL 2 ABOCADO ST.,PASIG  METRO MANILA",,,
Automatic Teller Machines,,,,,"This Bancnet ATM is located at QUEZON AVE. COR. D. TUAZON ST., QUEZON CITY, METRO MANILA.  In keeping abreast with the evolving needs of bank clients, BancNet has introduced several innovations that have transformed the ATM card to a multifunction debit card.  Aside from the traditional cash withdrawal and balance inquiry service, BancNet also provides a wide range of services available through the ATM such as:  Bills Payment Checkbook Request Credit Card Cash Advance Intra/ Inter Bank Funds Transfer Prepaid Phone Reload  Through interconnection with other ATM consortia in the country- Expressnet and Megalink, and international card networks VISA, Diners Club, Discover Card, JCB and China Union Pay, BancNet provides not only the widest nationwide access to their accounts but worldwide convenience as well. ",,,www.bancnetonline.com,,,,,,,,CHINA BANK Bancnet ATM,CHINA BANK QUEZON AVE. COR. D. TUAZON ST.QUEZON CITY METRO MANILA,,http://mailhide.recaptcha.net/d?k=01NLSjS7aEQYA6hW-ze4Bsnw==&c=RX7wI8xSQieuU_2OjpKaYG75UQpv2kSxzTZ0HRygzpQ= http://www.bancnetonline.com,
Automatic Teller Machines,,,,,"This Bancnet ATM is located at RETIRO COR. D. TUAZON ST., QUEZON CITY, METRO MANILA.  In keeping abreast with the evolving needs of bank clients, BancNet has introduced several innovations that have transformed the ATM card to a multifunction debit card.  Aside from the traditional cash withdrawal and balance inquiry service, BancNet also provides a wide range of services available through the ATM such as:  Bills Payment Checkbook Request Credit Card Cash Advance Intra/ Inter Bank Funds Transfer Prepaid Phone Reload  Through interconnection with other ATM consortia in the country- Expressnet and Megalink, and international card networks VISA, Diners Club, Discover Card, JCB and China Union Pay, BancNet provides not only the widest nationwide access to their accounts but worldwide convenience as well. ",,,www.bancnetonline.com,,,,,,,,ALLIED BANK Bancnet ATM,ALLIED BANK RETIRO COR. D. TUAZON ST.QUEZON CITY METRO MANILA,,http://mailhide.recaptcha.net/d?k=01NLSjS7aEQYA6hW-ze4Bsnw==&c=RX7wI8xSQieuU_2OjpKaYG75UQpv2kSxzTZ0HRygzpQ= http://www.bancnetonline.com,
Educational Institutions,,,,," Ms. Virginia P. Sanchez Institution Offers Primary, Education ",,,,,,,,,,,Morning Dew Montessori Center,"22 A. Tuazon Dt., De La PazMarikina Metro Manila",,,
Junk Shop,,,,,"RONIDEL JUNKSHOP is a Junk Shop business in PASIG ,METRO MANILA ",,,,,,,,,,,RONIDEL JUNKSHOP,8569 PHS II VILLA CUANA LANGKA ST.PASIG  METRO MANILA,,,
Sari Sari Store,,,,,"LIAN'S STORE is a Sari-sari Store business in MARIKINA,METRO MANILA ",,,,,,,,,,,LIAN'S STORE,LANGKA ST.MARIKINA METRO MANILA,,,934-4991
"Hospitals, Medical And Dental Supplies",,,,,"Mercury Drug - Mindanao - Congressional is a  Hospitals, Medical And Dental Supplies business located in Mindanao Avenue, Quezon City Metro Manila. For more information you can contact them at: 02 920-7643 ",,,,,,,,,,,Mercury Drug - Mindanao - Congressional,Mindanao AvenueQuezon City Metro Manila,,,02 920-7643
"Agricultural Industries, Books, Schools Supplies And Office Supplies, Cosmetics And Herbal Products, Groceries, Markets And Con",,,,,"Lizaly Store is a  Agricultural Industries, Books, Schools Supplies And Office Supplies, Cosmetics And Herbal Products, Groceries, Markets And Convenience Stores business located in Road 1, Quezon City Metro Manila. For more information you can contact them at: +63 916 137 4645 ",,,,,,,,,,,Lizaly Store,Road 1Quezon City Metro Manila,,,+63 916 137 4645
"Hospitals, Medical And Dental Supplies",,,,,"Luz Facial Care is a  Hospitals, Medical And Dental Supplies business located in Congressional Avenue, Quezon City Metro Manila. For more information you can contact them at: 024559399 ",,,,,,,,,,,Luz Facial Care,Congressional AvenueQuezon City Metro Manila,,,024559399
"Agricultural Industries, Books, Schools Supplies And Office Supplies, Cosmetics And Herbal Products, Groceries, Markets And Con",,,,,"Emelyn Store  is a  Agricultural Industries, Books, Schools Supplies And Office Supplies, Cosmetics And Herbal Products, Groceries, Markets And Convenience Stores business located in Palawan, Quezon City Metro Manila. For more information you can contact them at: +63 939 214 7942 ",,,,,,,,,,,Emelyn Store,PalawanQuezon City Metro Manila,,,+63 939 214 7942
"Agricultural Industries, Books, Schools Supplies And Office Supplies, Cosmetics And Herbal Products, Groceries, Markets And Con",,,,,"Princess Janelle Store is a  Agricultural Industries, Books, Schools Supplies And Office Supplies, Cosmetics And Herbal Products, Groceries, Markets And Convenience Stores business located in Palawan, Quezon City Metro Manila. For more information you can contact them at: +63 947 353 9049 ",,,,,,,,,,,Princess Janelle Store,PalawanQuezon City Metro Manila,,,+63 947 353 9049
"Agricultural Industries, Books, Schools Supplies And Office Supplies, Cosmetics And Herbal Products, Groceries, Markets And Con",,,,,"Jo Store is a  Agricultural Industries, Books, Schools Supplies And Office Supplies, Cosmetics And Herbal Products, Groceries, Markets And Convenience Stores business located in Palawan, Quezon City Metro Manila. For more information you can contact them at: +63 999 978 9408 ",,,,,,,,,,,Jo Store,PalawanQuezon City Metro Manila,,,+63 999 978 9408
"Hospitals, Medical And Dental Supplies",,,,,"Genequipt (Showroom) is a  Hospitals, Medical And Dental Supplies business located in Congressional Avenue, Quezon City Metro Manila. For more information you can contact them at: (+632) 455 1238 ",,,,,,,,,,,Genequipt (Showroom),Congressional AvenueQuezon City Metro Manila,,,(+632) 455 1238
,,,,,,,,,,,,,,,,,,,,
Construction Supplies,,,,,"Trendway Builders, Inc. is a Construction Supplies business located in Congressional Avenue, Quezon City Metro Manila. For more information you can contact them at: +63 2 426 4230 ",,,,,,,,,,,"Trendway Builders, Inc.",Congressional AvenueQuezon City Metro Manila,,,+63 2 426 4230
"Cosmetics And Herbal Products, Hospitals, Medical And Dental Supplies",,,,,"Herbal Center is a Cosmetics And Herbal Products, Hospitals, Medical And Dental Supplies business located in Congressional Avenue, Quezon City Metro Manila. For more information you can contact them at: +63 2 925 3545 ",,,,,,,,,,,Herbal Center,Congressional AvenueQuezon City Metro Manila,,,+63 2 925 3545
Public High School,,,,,"Abuyog National High School is a DepED Managed partially urban Secondary Public School located in City Of Sorsogon (Capital), Sorsogon. ",,,,,,,,,,,Abuyog National High School,City Of Sorsogon (Capital) Sorsogon,,,9127319609
Public Elementary School,,,,,"Sto. Nino Integrated School is a DepED Managed partially urban public Kinder & Elementary school located in City Of Sorsogon (Capital), Sorsogon. ",,,,,,,,,,,Sto. Nino Integrated School,City Of Sorsogon (Capital) Sorsogon,,,9196793655
Public Elementary School,,,,,"Sawanga Elementary School is a DepED Managed partially urban public Kinder & Elementary school located in City Of Sorsogon (Capital), Sorsogon. ",,,,,,,,,,,Sawanga Elementary School,City Of Sorsogon (Capital) Sorsogon,,,9106905672
Public Elementary School,,,,,"San Lorenzo Elementary School is a DepED Managed partially urban public Kinder & Elementary school located in City Of Sorsogon (Capital), Sorsogon. ",,,,,,,,,,,San Lorenzo Elementary School,City Of Sorsogon (Capital) Sorsogon,,http://mailhide.recaptcha.net/d?k=01NLSjS7aEQYA6hW-ze4Bsnw==&c=PYv5EjJVGjLOhBAgh5KT4ODMZpAv0pwWMxma94Vj_50=,9475481949
Public Elementary School,,,,,"Panlayaan Elementary School is a DepED Managed partially urban public Kinder & Elementary school located in City Of Sorsogon (Capital), Sorsogon. ",,,,,,,,,,,Panlayaan Elementary School,City Of Sorsogon (Capital) Sorsogon,,,9094983164
Public Elementary School,,,,,"Gimaloto Elementary School is a DepED Managed partially urban public Kinder & Elementary school located in City Of Sorsogon (Capital), Sorsogon. ",,,,,,,,,,,Gimaloto Elementary School,City Of Sorsogon (Capital) Sorsogon,,,9465284054
Public Elementary School,,,,,"Cambulaga Elementary School is a DepED Managed partially urban public Kinder & Elementary school located in City Of Sorsogon (Capital), Sorsogon. ",,,,,,,,,,,Cambulaga Elementary School,City Of Sorsogon (Capital) Sorsogon,,,9263337017
,,,,,,,,,,,,,,,,,,,,
Public Elementary School,,,,,"Cabid-an Elementary School is a DepED Managed partially urban public Kinder & Elementary school located in City Of Sorsogon (Capital), Sorsogon. ",,,,,,,,,,,Cabid-an Elementary School,City Of Sorsogon (Capital) Sorsogon,,,9187911898
TAILORING SHOP,,,,,"BIG J ALFARO SPORTING GOODS is a TAILORING SHOP business in SAN FERNANDO ,PAMPANGA ",,,,,,,,,,,BIG J ALFARO SPORTING GOODS,SAN NICOLAS SAN FERNANDO  PAMPANGA,,,(045) 961-4103
MACHINE SHOP,,,,,"ARIES ENGINEERING & MACHINE WORKS INC. is a MACHINE SHOP business in SAN FERNANDO ,PAMPANGA ",,,,,,,,,,,ARIES ENGINEERING & MACHINE WORKS INC.,SAN NICOLAS SAN FERNANDO  PAMPANGA,,,(045) 961-5743
TRADING,,,,,"AMATEC CONSTRUCTION AND MARBLE SUPPLY is a TRADING business in SAN FERNANDO ,PAMPANGA ",,,,,,,,,,,AMATEC CONSTRUCTION AND MARBLE SUPPLY,SAN NICOLAS SAN FERNANDO  PAMPANGA,,,
Sari Sari Store,,,,,"AMALIA BRAGANZA SARI-SARI STORE is a SARI-SARI STORE business in SAN FERNANDO ,PAMPANGA ",,,,,,,,,,,AMALIA BRAGANZA SARI-SARI STORE,SAN NICOLAS SAN FERNANDO  PAMPANGA,,,0921-5508724
CANTEEN,,,,,"ACUZAR CANTEEN is a CANTEEN business in SAN FERNANDO ,PAMPANGA ",,,,,,,,,,,ACUZAR CANTEEN,SAN NICOLAS SAN FERNANDO  PAMPANGA,,,9098033881
Printers,,,,,"St Jo Printing Press  is a Printers  business in San Fernando ,Pampanga ",,,,,,,,,,,St Jo Printing Press,San NicolasSan Fernando  Pampanga,,,(045) 9000776
Churches,,,,,"San Agustin Parish Church  is a Churches  business in San Fernando ,Pampanga ",,,,,,,,,,,San Agustin Parish Church,San NicolasSan Fernando  Pampanga,,,(045) 9716505
,,,,,,,,,,,,,,,,,,,,
Radio Stations & Broadcasting Companies,,,,,"Radyo Pilipino Corporation  is a Radio Stations & Broadcasting Companies business in San Fernando ,Pampanga ",,,,,,,,,,,Radyo Pilipino Corporation,San NicolasSan Fernando  Pampanga,,,(045) 9822921
Hardware,,,,,"Marimla Construction Supply  is a Hardware  business in San Fernando ,Pampanga ",,,,,,,,,,,Marimla Construction Supply,San NicolasSan Fernando  Pampanga,,,(045) 9230543
"Hospitals, Medical and Dental Services",,,,,"TMJ -Orthodontics-Orthopedics-Dental health Medicine (Snoring & Sleep Apnea Management)- General Dentistry, Oral Surgery, Implantology ",,,www.jlgalangdentalgroup.com,,,,,,,,JL GALANG DENTAL CLINIC,Pamp.EENT and Gen.Hospital 17 San NicolasCity of San Fernando Pampanga,,http://mailhide.recaptcha.net/d?k=01NLSjS7aEQYA6hW-ze4Bsnw==&c=tZbkbgcTSe7dwHGWCXXyTud87zsZMMZaO72fIVn_QrI= http://www.jlgalangdentalgroup.com,045-9612751/ 045-8603849/ 09215551246
TRAVEL AGENCY,,,,,"REGGINE TOURS AND TRAVEL is a TRAVEL AGENCY business in BACOOR ,CAVITE ",,,,,,,,,,,REGGINE TOURS AND TRAVEL,"219-1, NIOG III,BACOOR  CAVITE",,,(046)571-0858 / 571-0858
TRAVEL AGENCY,,,,,"AIR BREAK TRAVEL & TOURS SERVICES is a TRAVEL AGENCY business in Las Pinas,METRO MANILA ",,,,,,,,,,,AIR BREAK TRAVEL & TOURS SERVICES,63 PALM DRIVE REMARVILLE SUBD. / 7 Casals Bldg Philamlife Ave Pamplona DosLas Pinas METRO MANILA,,,
TRAVEL AGENCY,,,,,"JERO TRAVEL AND TOURS is a TRAVEL AGENCY business in Las Pinas,METRO MANILA ",,,,,,,,,,,JERO TRAVEL AND TOURS,B2 L54 CASIMIRO TOWN HOMES ZAPOTE / STARMALL C. V. Starr Ave Pamplona DosLas Pinas METRO MANILA,,,09279855596
TRANSPORTATION SERVICES,,,,,"JOHN MIGS & BRI GELO TRANSPORT SERVICES CORP is a TRANSPORTATION SERVICES business in Las Pinas,METRO MANILA ",,,,,,,,,,,JOHN MIGS & BRI GELO TRANSPORT SERVICES CORP,6 THELMA ROAD VILLA CRISTINA SUBD Pamplona DosLas Pinas METRO MANILA,,,
TRAVEL AGENCY,,,,,"TZION TRAVEL & TOURS is a TRAVEL AGENCY business in Las Pinas,METRO MANILA ",,,,,,,,,,,TZION TRAVEL & TOURS,17 APACIBLE ST. PHILAM VILL. PAMPLONA II LAS PINAS / 17 B. Apacible St. Phil-Am Life Village Pamplona DosLas Pinas METRO MANILA,,,2155221
TRAVEL AGENCY,,,,,"SMART CHOICE TRAVEL AND TOURS is a TRAVEL AGENCY business in Las Pinas,METRO MANILA ",,,,,,,,,,,SMART CHOICE TRAVEL AND TOURS,B4 L11 PH5 PACITA COMPLEX SAN PEDRO LAGUNA / 182 PPD2 Santiaguel Bldg Alabang-Zapote Rd Pamplona DosLas Pinas METRO MANILA,,,09293402503
TRANSPORTATION SERVICES,,,,,"LLRP TRANSPORT SERVICES is a TRANSPORTATION SERVICES business in Las Pinas,METRO MANILA ",,,,,,,,,,,LLRP TRANSPORT SERVICES,4-B LIBRA ST Pamplona Park Subd Pamplona DosLas Pinas METRO MANILA,,,09266997349
,,,,,,,,,,,,,,,,,,,,
SHIPPING,,,,,"ABOITIZ TRANSPORT SYSTEM (ATSC) CORPORATION is a SHIPPING business in Las Pinas,METRO MANILA ",,,,,,,,,,,ABOITIZ TRANSPORT SYSTEM (ATSC) CORPORATION,12/F TIMES PLAZA BLDG. UNITED NATIONS AVE. COR TAFT AVE. ERMITA MANILA 1000 / LOWER GROUND FLOOR LEVEL SM CENTER Alabang-Zapote Rd Pamplona DosLas Pinas METRO MANILA,,,5287609
TRANSPORTATION SERVICES,,,,,"ASTSEA EXPRESS TRANSPORT SERVICE is a TRANSPORTATION SERVICES business in Las Pinas,METRO MANILA ",,,,,,,,,,,ASTSEA EXPRESS TRANSPORT SERVICE,46 VERDANT AVE. PAMPLONA III / L15 32-B Capricorn St. Pamplona Park Subd Pamplona DosLas Pinas METRO MANILA,,,9153154444
Food and Foodstuff,,,,,"ASIA UNITED INTERNATIONAL TRADING INC. is a Food and Foodstuff located in Unit 5B Washington Tower, Asia World City E. Aguinaldo Blvd. Paranaque City Metro Manila ",,,,,,,,,,,ASIA UNITED INTERNATIONAL TRADING INC.,"Unit 5B Washington Tower, Asia World City E. Aguinaldo Blvd.Paranaque City Metro Manila",,,632 8798277
Public Elementary School,,,,,"Don Galo ES is a DepED Managed urban public Elementary school located in City Of Parañaque, City Of Parañaque. ",,,,,,,,,,,Don Galo Elementary School,J. Gabriel St.City Of Parañaque City Of Parañaque,,http://mailhide.recaptcha.net/d?k=01NLSjS7aEQYA6hW-ze4Bsnw==&c=yy2aB0twIwKnii45wVRJx8JGUvQo5YRMYXgzJLwsqP0=,5011958
Educational Institutions,,,,,Tesda Authorized Training Center ,,,,,,,,,,,RBS Talent Promotion and Training Center,"0026 BDG Bldg., Third Flr. Quirino Ave., Tamaraw Court TamboParanaque City Metro Manila",,,
Furniture and Houseware,,,,,"Living room, dining room furniture ",,,,,,,,,,,INTERNATIONAL CANES PRODUCTS INC.,"#695 Quirino Avenue, Tambo, Parañaque City, Metro Manila, PhilippinesParañaque Metro Manila",,http://mailhide.recaptcha.net/d?k=01NLSjS7aEQYA6hW-ze4Bsnw==&c=Z-ep_7pxkhPtgez0bfnXto9lgO-9aWxPOxQSblYDxAE=,+63 2 834. 1907; 851. 6008
Public Elementary School,,,,,"Tambo ES I is a DepED Managed urban public Elementary school located in City Of Parañaque, City Of Parañaque. ",,,,,,,,,,,Tambo ES I,-C. SantosCity Of Parañaque City Of Parañaque,,http://mailhide.recaptcha.net/d?k=01NLSjS7aEQYA6hW-ze4Bsnw==&c=TWxvboQpkCMSlLXxVrCBFFI13NKdK5oxcwQROMPYRO8=,851-23-55
Courier Services,,,,,"The SPSts Int'l Courier Services is committed to provide trust and satisfactory pick-up and delivery services to our valued important clients.To cater medical requirements such like health and sanitation, medicines to keep help support the drive for clean and healthy living. ",,,,,,,,,,,SPSts International Courier Services,3246 Lopez de Leon Street TamboCITY OF PARAÃƒÂ‘AQUE NCR,,http://mailhide.recaptcha.net/d?k=01NLSjS7aEQYA6hW-ze4Bsnw==&c=cfvewVzInIhStpAv5eP7xjLYUDnYZCIUv9OqGcSXhI3gRRtr8zzd8yz7VAfWdRfG,02 8524428
Food and Beverage,,,,,"Haute Couture F&B Concepts, Inc. is a sister company of Hoopla, Inc. Unlike Hoopla though, (which is in the entertainment industry), Haute Couture F&B Concepts, Inc. is in the food service industry. Though it may be a considered a new player, similar to Hoopla, the company hopes to create an indelible imprint in its respective industry by providing products and services that are meant to address unmet needs in the market. Case in point, its very first venture, â€˜Fat Juanâ€™ has managed to be in a unique category by offering high-quality yet reasonably-priced Continental Asian dishes in a seemingly posh but not discriminating setting. Inspired by its name, â€˜Fat Juanâ€™ is all about good and filling food with a twist meant to satisfy oneâ€™s craving.  Haute Couture F&B Concepts, Inc. aims to produce more â€˜firstsâ€™ in the food service industry. It is committed to pursuing unparalleled and â€˜out-of-the-boxâ€™ executions that are always founded on solid research and sound consumer insights.  The common denominator that binds the companyâ€™s major stakeholders is not only their innate passion for their respective crafts, but also their undeniable dedication to make things happen.  ",,,,,,,,,,,HAUTE COUTURE F&B CONCEPTS INC,264 Quirino Avenue TamboCITY OF PARAÃ‘AQUE NCR,,,02 8511407
,,,,,,,,,,,,,,,,,,,,
,,,,,,,,,,,,,,,,,,,,
Precision Tooling and A Trading Company,,,,,"Precision/Semi-precision Tooling Company,Complete Sheet Metal Fabrication and a Trading Company owned by Mr. Efren B. Arcos.  Trading Services Offers:  ~Laser Cutting Service ~Water Jet Cutting Service ~CNC Lathe Service ~CNC Mill Service ~Powder Coating Service ~Metal Plating Service (Chrome etc.) ~Supplies all kinds of Screws     ",,,,,,,,,,,South Tools and Trading Services,"Duplex Homes, Molino 4, Bacoor Cavite Molino IVBACOOR CAVITE",,http://mailhide.recaptcha.net/d?k=01NLSjS7aEQYA6hW-ze4Bsnw==&c=WVDxQy55WAzdK-nSTDewNwZTTXQCdTBcPVyzv1E62QI=,046 477 1475
corporation,,,,,Quality beyond reasonable cost Services: Precision Toolings Metal and Stainless Fabrication] Water jet/Laser cutting HVAC and Refrigeration Mechanical Consruction Escalator and Elevetor supplies and maintenance Cold storage construction Automation Services ,,,www.supersystems_engineering.com,,,,,,,,SUPERSYSTEMS TOOLINGS AND METALFAB INC,2nd Floor Supersystems Bldg Blk24 Lot 8 Francisco ReyesGEN. MARIANO ALVAREZ CAVITE,,http://mailhide.recaptcha.net/d?k=01NLSjS7aEQYA6hW-ze4Bsnw==&c=49ZVSLuPChig1otnDcdq5oG_imkLnTcY_54WafxR05w= http://www.supersystems_engineering.com,02-8681075
Advertising,,,,,"Specialize in signage fabrication and printing works...stickers,sign,digital print,stainless & steel metal fabrication..panaflex sign,builtup letters,neon sign,directional sign,road sign,luminous glow in the dark signages, reflective sign,stainless and brass sign..corporate giveaways.. ",,,,,,,,,,,ADV SIGNPRO ADVERTISING,B4 L16 strawberry st.camella west springville Molino IIIBACOOR CAVITE,,http://mailhide.recaptcha.net/d?k=01NLSjS7aEQYA6hW-ze4Bsnw==&c=CFk-x3cGCOORSynIjWpzh0vgcGtt60WM1OvtY3HGqTE=,(046)512-02-29
water treatment,,,,,"Body Guard Water Purifier is located at Consolacion, Cagayan de Oro City. At Body Guard Water Purifier, we assure you of clean and safe water for drinking and other purposes. We cater to your need for quality water treatment. For more info visit us at www.bgwaterfilter.com or call us now 0927 775 9502! ",,,,,,,,,,,Body Guard Water Purifier,"Block 4, Lot 2, Isla Bugnaw, Dist. 3 ConsolacionCAGAYAN DE ORO CITY  MISAMIS ORIENTAL",,http://mailhide.recaptcha.net/d?k=01NLSjS7aEQYA6hW-ze4Bsnw==&c=q7_Yby17FYdgFaMBiCeIBeUcw_TVYjRncy0LhkqpGKY=,0927 775 9502
Restaurants,,,,,"Chowking  is a Restaurants business in Davao City ,Davao ",,,,,,,,,,,Chowking,Porras  Davao City  Davao,,,(082) 2241319
Clinics,,,,,"Novenario Manuel Escudero  is a Clinics business in Lucena ,Quezon ",,,,,,,,,,,Novenario Manuel Escudero,16 Quezon Ave Lucena City QuezonQuezon,,,(042) 710-4868
Colleges and Universities,,,,,CHED Certified Higher Education Institution ,,,,,,,,,,,City College of Lucena,Maharlika H-WayLucena City Quezon,,,(042) 373-1483
Educational Institutions,,,,,Tesda Certified Ladderized Program: BS  Information Management ,,,,,,,,,,,City College of Lucena,"Brgy. Iyam, Lucena City",,,
,,,,,,,,,,,,,,,,,,,,
Real Estate,,,,,"Pajarillo And Delfin Development Corporation  is a Real Estate  business in Lucena ,Quezon ",,,,,,,,,,,Pajarillo And Delfin Development Corporation,70 Allarey Lucena CityQuezon,,,(042) 710-3454
IT Solutions Provider,,,,,Software Development Outsourcing Website Development and Hosting ICT Hardware Infrastructure Set up and Maintenance Systems Development and Database Administration Systems Integration ICT Human Resource Outsourcing ICT Training  ,,,www.qtechbpo.com/,,,,,,,,Q-techBPO,3f SB Enverga St.Lucena Quezon,,http://mailhide.recaptcha.net/d?k=01NLSjS7aEQYA6hW-ze4Bsnw==&c=Ra-lKiKnX13tyyXYYPGqYYYnmBWQjscMwWmMnVsQ41o= http://www.qtechbpo.com/,042 660 7877 / +63 917 560-3284
,,,,,,,,,,,,,,,,,,,,
Food and Foodstuff,,,,,"FOOD PROCESSORS OF REGION IV-A is a Food and Foodstuff located in c/o DTI-Region IV-A, 2F Don Froilan Florez Bldg, Granja cor Enverga St, Lucena City Quezon ",,,,,,,,,,,FOOD PROCESSORS OF REGION IV-A,"c/o DTI-Region IV-A, 2F Don Froilan Florez Bldg, Granja cor Enverga St,Lucena City Quezon",,,+63 42 660 7656
Software And Web Development,,,,,philcoders is a software and web development studio / consultancy firm specializing in crafting high-quality computer code to build state-of-the-art software solutions and web applications.   philcoders is a software and web development company based on the small but rapidly progressing city of Lucena in the Philippine Islands. Founded by Arthur Abogadil in 2008 and formally licensed and registered in the Philippines on 2010.  ,,,www.philcoders.com,,,,,,,,philcoders,2nd Floor Arenal Building Granja Cor Trinidad Sts Brgy 1Lucena Quezon,,http://mailhide.recaptcha.net/d?k=01NLSjS7aEQYA6hW-ze4Bsnw==&c=zvbTil5kflODwIjk345-PGX4YrfpG-bPNnZLh6FjqI0= http://www.philcoders.com,+63 042 322 0421
Management Consulting,,,,,"QZN Electrical Builders Co. (QEB) is an electrical engineering company and trusted by leading companies in our area. It was accredited by Meralco (AMC). We are located at CALABARZON Region at 8170 Quezon Avenue, Brgy. Gulang Gulang, Lucena City.  We offers professional Electrical Design services in the areas of: Residential, commercial and industrial estates, including Public Lighting Installations, Electrical Distribution and Sub Transmission Networks, Commercial and industrial installations.  Professional Electrical Engineering Design Services offered: MEPF + Solar Design, Estimates and Installation Electrical Audit, Inspection and Assessment Electrical Equipment sales Testing and Commissioning MEPF+Solar As-Built Engineering Plans Sign and Seal Short Circuit and Voltage Drop Analysis Project Management Trainings and Seminars Mechanical Engineering: HVAC+Refrigeration System HVAC Design and Maintenance Solar Engineering: On grid System Design Off gird System Design Hybrid System Design Civil and Structural Engineering: Structural Design and Planning Horizontal and Vertical Structure Plumbing and Piping Engineering: DVW System Cold and Hot Water Distribution System Piping and Sanitary System ",,,www.qeb.electrical.com,,,,,,,,QZN Electrical Builders Co.,"8170 Quezon Avenue, Lucban, Quezon Barangay 1 (Pob.)Lucena City QUEZON",,http://mailhide.recaptcha.net/d?k=01NLSjS7aEQYA6hW-ze4Bsnw==&c=RmrfA06_sqzlu1cN6MaxjDvnZFl_4LL0x0xBtSYwLoQ= http://www.qeb.electrical.com,09238030289
Pastry Food and Drink,,,,,"Try our softest, creamiest, fluffiest Cupcake. Avail our cupcakes for affordable prices. Ilayang Iyam Lucena City ",,,brookebakeshopp.net84.net,,,,,,,,brookebakeshopp,Ilayang Iyam  Ilayang IyamLUCENA CITY  QUEZON,,http://mailhide.recaptcha.net/d?k=01NLSjS7aEQYA6hW-ze4Bsnw==&c=g3JXPV59f5kxIlhmpmGI-VQKZobG_2VScBVHUR0lZafcTsgVP-NDSu8KCzPViMgf http://brookebakeshopp.net84.net,
Rotissorie Roasting Machine Supplier Manufacturer,,,,,"Biala-Meris,Inc is a new company based in California that has developed a new way to cook not only chickens, but other types of foods BialaMeris has developed an oven that can roast twenty eight (28) x 5.0 lbs chickens in 50 minutes or fifty six (56) x 2.0 lbs chickens in 45 minutes. Their process uses a combination of outside heat to brown the chicken with conduction and convection heat from the inside insuring the complete cooking of the chicken and the retention of moisture without the necessity for chemicals. The patented technology is designed to comply with modern food safety programs to totally eradicate pathogens, parasites and reduce carcinogenic formation. ",,,www.bialameris.com,,,,,,,,Biala-Meris Asia,1975 Wisdom Street Risario Village Lucneal City Ilayang IyamLUCENA CITY  QUEZON,,http://mailhide.recaptcha.net/d?k=01NLSjS7aEQYA6hW-ze4Bsnw==&c=i6a4apqa92pWYK6U6hweuPsUF01oH1tTGU5EfXGt3Y0= http://www.bialameris.com,63 09227029231
Aluminum,,,,,"Uniframe Aluminum Corporation  is a Aluminum  business in Davao City ,Davao ",,,,,,,,,,,Uniframe Aluminum Corporation,Vinzon  Davao City  Davao,,,(082) 2277104
Churches,,,,,"Bell Church  is a Churches business in Davao City ,Davao ",,,,,,,,,,,Bell Church,Vinzons  Davao City  Davao,,,(082) 2279128
Architects,,,,,"Ansaldo Jaime P  is a Architects  business in Davao City ,Davao ",,,,,,,,,,,Ansaldo Jaime P,Vinzon  Davao City  Davao,,,(082) 2263797
Mining Companies,,,,,"Loyalty Mining & Devt Corp is a Mining Companies  business in Davao City ,Davao ",,,,,,,,,,,Loyalty Mining & Devt Corp,26 Lupo Diaz Davao City  Davao,,,(082) 2211821
manufacturer exporter,,,,,"KF Nutri Foods International inc. is a manufacturer and exporter of banana chips.  It is established in 2008 and regularly exporting to Asian countries, U.S. and Europe in full container loads of banana chips. ",,,www.kfnutrifoods.com,,,,,,,,kf nutri foods international inc.,dwtc bldg porras corner vinzon st barrio obrerodavao city Davao del Sur,,http://mailhide.recaptcha.net/d?k=01NLSjS7aEQYA6hW-ze4Bsnw==&c=31u1CWVpW_B4I1hYJSnep3lRFV4gvWP8rLtenmHhL2s= http://www.kfnutrifoods.com,+63823005494
Arts & Creative Center,,,,,"Allow us to briefly introduce ourselves to your school. Global Art & Creative was founded in 1999 in Malaysia by Mr. Mahair Goh. As an art teacher, Mr. Goh has had the experience of teaching drawing and art to students from 4 years old and above. He realized that art and drawing lessons, although very much loved by children, have not received the attention that it deserves. Unlike other creativity lessons such as dancing or music, drawing lessons seldom (if at all) have any systematic curriculum nor possess goals for its students. Thus, the lessons were mainly based on the teachers, making it a teacher-oriented lesson. Students would just follow and copy what the teacher draws. Determined to make a difference and to make changes in art and drawing lesson. Mr. Goh started to conceptualise  a curriculum. One that was student-oriented, allowing students to be creative and innovative, it also taught them the techniques that they needed to learn in order to master the skill. Therefore, he founded, Global Art and Creative. Global Art and Creative was very welcomed and appreciated in Malaysia that it grew from 10 centers to 60 centers in just a year. Furthermore, Global Artâ€™s curriculum is now being used in 18 different countries including China, Australia, Canada and most of the South East Asia countries, with 450 centers and more than 100,000 students worldwide. For Mr. Gohâ€™s dedication to teaching art, he has since received so many acknowledgments and awards from the Malaysian government as well as reputable organizations including the LimKokWing University of Creative Technology, The Saito Art Academy of Japan, and Lefranc and Bourgeois of France. Global Art and Creative has four main levels which are as follows: â€¢	Foundation Level (4 years old â€“ 6 years old) Teaching children to draw through dotted lines to greater enhance their fine motoring skills and to learn the basic shapes. Children can also add objects in the drawing and they will also learn different techniques of coloring using color pencils and oil pastel. â€¢	Basic Level ( 7 years old â€“ 9 years old) Teaching children to draw not only an object but also a scene using drawing composition techniques, allowing them to conceptualize their ideas into something visual.  â€¢	Intermediate Level (10 years old â€“ 13 years old) Teaching children to further enhance their drawing and composition skills by drawing human figures with complex themes using oil pastels and the introduction of poster color. â€¢	Advance Level (14 years old and above) Teaching children to much more complex drawing skills such as painting, sketching, and illustration. Aside from its four main levels, Global Art and Creative also offers other programs such as Comic and Cartoon. In Global Art and Creative, we donâ€™t only teach children how to draw by copying a sample. We teach children to explore their imagination and create their own stories as well sharpening their drawing and coloring skills.    ",,,,,,,,,,,Global Arts & Creative,"Le Vivre 301 E. Palma Gil St., Bo. ObreroDavao City Davao del Sur",,,+6382 221-9980
,,,,,,,,,,,,,,,,,,,,
,,,,,,,,,,,,,,,,,,,,
Educational Institutions,,,,,Tesda Certified Ladderized Program: Bachelor of  Industrial Technology major in Automotive Technology ,,,,,,,,,,,University of Southeastern Philippines College of Technology (USEP),"Obrero Campus, Bo. Obrero, Davao City",,,
Contractor,,,,,STALWART is a Davao City based General Construction Company composed of highly skilled professionals with extensive knowledge and experience in the DESIGN and BUILD industry. Our clients love the work we do as we always focus on the most important aspects of construction. ,,,www.stalwartphilippines.com,,,,,,,,STALWART Construction and Home innovation,"Unit 1&2 J Five Bldg. Palma Gil St., Bo. Obrero ObreroDavao City DAVAO DEL SUR",,http://mailhide.recaptcha.net/d?k=01NLSjS7aEQYA6hW-ze4Bsnw==&c=ZuxrvwF5WIFR3waxyD6Tp6WUs8NuyBYXbeq_jdcGaWo= http://www.stalwartphilippines.com,(082)300 4986 / 0917 724 0289
Construction,,,,,To be a leading provider of construction products that provides foundation for society's future.  We are solid partners for our customers and all stakeholders based on the integrity and competency of our people while providing quality products at the most friendly prices.  ,,,,,,,,,,,High Cap Marketing,Dr. 1 # 51 Vinzon St ObreroDAVAO CITY DAVAO DEL SUR,,http://mailhide.recaptcha.net/d?k=01NLSjS7aEQYA6hW-ze4Bsnw==&c=28PfYvc3D8RjGcXuWJlptTcXSJx58G8GfwbwbC1HTBc=,082 300 8186
,,,,,,,,,,,,,,,,,,,,
